state,type,name,country,district,location,tel
開業,藥事機構,羽田藥局,臺南市,中西區,府前路一段214號,06-2214066
開業,藥事機構,健康人生藥局,臺南市,中西區,中山路125之65號,06-2258628
開業,藥事機構,平安藥局,臺南市,中西區,永華路一段236號,06-2292789
開業,藥事機構,發育藥局,臺南市,中西區,海安路1段205號1樓,06-2215896
開業,藥事機構,台南藥局,臺南市,中西區,民族路3段43號,06-2249705
開業,藥事機構,韓政藥局,臺南市,中西區,和善街2號,06-2597270
開業,藥事機構,千代藥局,臺南市,中西區,民生路一段60號1樓,06-2256895
開業,藥事機構,健國藥局,臺南市,中西區,民權路1段34號,06-2279568
開業,藥事機構,吉安藥局,臺南市,中西區,成功路289號,06-2227394
開業,藥事機構,新隆安藥局,臺南市,中西區,青年路165號,06-2225475
開業,藥事機構,金德藥局,臺南市,中西區,府前路1段33號,06-2149082
開業,藥事機構,盈興藥局,臺南市,中西區,中正路122號,06-2204131
開業,藥事機構,春天藥局,臺南市,中西區,民族路2段274號,06-2221562
開業,藥事機構,協和藥局,臺南市,中西區,青年路195號,06-2263061
開業,藥事機構,泰元藥局,臺南市,中西區,民權路1段87號,
開業,藥事機構,東北藥局,臺南市,中西區,西門路2段14號,06-2226753
開業,藥事機構,瑞芳藥局,臺南市,中西區,府前路1段134號,06-2223798
開業,藥事機構,高明藥師保健藥局,臺南市,中西區,西門路1段448號,06-2133158
開業,藥事機構,吉仁大藥局,臺南市,中西區,民權路2段86號,06-2263777
開業,藥事機構,快安藥局,臺南市,中西區,永福路2段84號之15,06-2254543
開業,藥事機構,王子藥局,臺南市,中西區,忠義路2段203號,06-2226330
開業,藥事機構,泰毅藥局,臺南市,中西區,友愛街46之1號,06-2257181
開業,藥事機構,萬國藥局,臺南市,中西區,廣慈街六號,06-2228825
開業,藥事機構,大全藥局,臺南市,中西區,府連路39號,06-2145007
開業,藥事機構,丞功藥局,臺南市,中西區,成功路31號,06-2287641
開業,藥事機構,府前藥師藥局,臺南市,中西區,府前路1段270號,06-2284411
開業,藥事機構,五代全民藥局,臺南市,中西區,民族路2段76-9號,06-2264800
開業,藥事機構,常新藥局,臺南市,中西區,健康路一段370號,
開業,藥事機構,自在藥局,臺南市,中西區,民生路2段63號,06-2235520
開業,藥事機構,三芳藥局,臺南市,中西區,大勇街5號,06-2203084
開業,藥事機構,雅里藥局,臺南市,中西區,民族路3段285號,06-2200881
開業,藥事機構,長泰藥局,臺南市,中西區,武聖路69巷35號,06-2598743
開業,藥事機構,永祥藥局,臺南市,中西區,民權路3段204號,06-2212163
開業,藥事機構,星宗藥局,臺南市,中西區,大勇街37號,06-2223457
開業,藥事機構,銘豐藥局,臺南市,中西區,西賢1街80號,06-2596991
開業,藥事機構,啟全藥師藥局,臺南市,中西區,金華路3段194號,06-2204768
開業,藥事機構,百健藥局,臺南市,中西區,成功路303號,06-2277887
開業,藥事機構,昶欣藥局,臺南市,中西區,西賢1街110號,06-2505830
開業,藥事機構,和生堂藥局,臺南市,中西區,大勇街一號之一,
開業,藥事機構,康乃爾藥局,臺南市,中西區,成功路321號,06-2267917
開業,藥事機構,西門藥局,臺南市,中西區,西門路2段209號,06-2211222
開業,藥事機構,田邊藥局,臺南市,中西區,中正路236號,06-2200106
開業,藥事機構,日日康藥局,臺南市,中西區,武聖路137號,06-2595259
開業,藥事機構,慶大藥局,臺南市,中西區,民權路二段182號,2251188
開業,藥事機構,橘井藥局,臺南市,中西區,開山路51號,06-2210759
開業,藥事機構,福氣藥局,臺南市,中西區,民族路三段179號1樓,06-2221590
開業,藥事機構,麗欣健保藥局,臺南市,中西區,永華路一段194號1樓,06-2209393
開業,藥事機構,南門藥局,臺南市,中西區,五妃里南門路233號之4,06-2141615、06-2132256
開業,藥事機構,遵德中西藥局,臺南市,中西區,府前路一段173號,06-2151317
開業,藥事機構,恩泉藥局,臺南市,東區,崇明路207號1樓,
開業,藥事機構,裕信市安藥師藥局,臺南市,東區,裕信路173號,06-3318138
開業,藥事機構,安興裕信藥局,臺南市,東區,裕農路962號,06-3307413
開業,藥事機構,佳德昌藥局,臺南市,東區,中華東路3段119號,06-2903539、06-7034222
開業,藥事機構,美德崇德藥局,臺南市,東區,崇德路350號1樓,06-3000500
開業,藥事機構,東門啄木鳥藥局,臺南市,東區,東門路三段161號,
開業,藥事機構,元大中西藥局,臺南市,東區,東興路81號,06-2345770
開業,藥事機構,統一藥局,臺南市,東區,東門路1段291號,06-2376638
開業,藥事機構,大來藥局,臺南市,東區,東安路172之1號,06-2389580
開業,藥事機構,裕笙藥局,臺南市,東區,東門路1段203號,06-2375323
開業,藥事機構,佳禾藥局,臺南市,東區,東寧路213號,06-2380872
開業,藥事機構,周藥師藥局,臺南市,東區,崇善路654號,06-2678421
開業,藥事機構,懷仁藥局,臺南市,東區,崇德路342號,06-2694895
開業,藥事機構,大茂元藥局,臺南市,東區,生產路335號之2,06-2601937
開業,藥事機構,文成藥局,臺南市,東區,東寧路43之1號,06-2340860
開業,藥事機構,王藥局,臺南市,東區,小東路190之1號,06-2378697
開業,藥事機構,大家藥局,臺南市,東區,大同路2段175號,06-2153777
開業,藥事機構,簡藥局,臺南市,東區,東榮街1之2號,06-2368796
開業,藥事機構,宏昌藥局,臺南市,東區,大同路1段271號,06-2142459
開業,藥事機構,正忠藥局,臺南市,東區,林森路2段192巷24弄5號,06-2370030
開業,藥事機構,賴藥局,臺南市,東區,裕農路621巷26之2號,06-2363738
開業,藥事機構,三祐堂藥局,臺南市,東區,東門路2段366號,06-2673654
開業,藥事機構,乙田藥局,臺南市,東區,怡東路30號,06-2359303
開業,藥事機構,榮泰藥局,臺南市,東區,林森路2段192巷49號,06-2369095
開業,藥事機構,顥瑄藥局,臺南市,東區,富農街1段69號,06-2678379
開業,藥事機構,中華台安藥局,臺南市,東區,中華東路1段4號1樓,06-2763136
開業,藥事機構,崇明保健藥局,臺南市,東區,崇明路972號1樓,06-2008088
開業,藥事機構,安麗兒藥局裕農店,臺南市,東區,裕農路100號1樓,06-2377378
開業,藥事機構,宏荏藥局,臺南市,東區,崇明11街52巷2號,06-2684725
開業,藥事機構,安康藥局,臺南市,東區,大同路2段59號,06-2156365
開業,藥事機構,裕康藥局,臺南市,東區,崇明十四街81號,06-2604477
開業,藥事機構,維康中西藥局,臺南市,東區,勝利路39號,06-2350490、2341402
開業,藥事機構,信峰藥局,臺南市,東區,仁和路104之4號,06-2674560
開業,藥事機構,安生藥局,臺南市,東區,裕農路151號,06-2361976
開業,藥事機構,益丞藥局,臺南市,東區,裕農路348號,06-2359865
開業,藥事機構,炫德藥局,臺南市,東區,生產路339號,06-2688191
開業,藥事機構,良泰藥局,臺南市,東區,仁和路117號之1,06-2676256
開業,藥事機構,建龍藥局,臺南市,東區,中華東路2段257號,06-2676805
開業,藥事機構,億安大藥局,臺南市,東區,大同路2段265號,06-2671881
開業,藥事機構,華興藥局,臺南市,東區,崇善路562號,06-2683757
開業,藥事機構,宏成藥局,臺南市,東區,裕農路116號,06-2359339
開業,藥事機構,明遠藥師藥局,臺南市,東區,德東街63號,06-2908360
開業,藥事機構,崇安藥師藥局,臺南市,東區,崇學路287號,06-2904717
開業,藥事機構,光明宜康保健藥局,臺南市,東區,光明街36之2號一樓,06-2233977
開業,藥事機構,小太陽藥局,臺南市,東區,東平路13號,06-2099858
開業,藥事機構,宏佳藥局,臺南市,東區,崇德路六八一號,06-2600219
開業,藥事機構,現代大藥局,臺南市,東區,仁和路110之2號一樓,06-3357051
開業,藥事機構,台安藥局,臺南市,東區,大同路1段163號,06-2721557
開業,藥事機構,王瑞敏藥師藥局,臺南市,東區,崇德路739號,06-2896888
開業,藥事機構,大林藥局,臺南市,東區,大同路2段143號,06-2143328
開業,藥事機構,晉大藥局,臺南市,東區,東興路264號,06-2092580
開業,藥事機構,菁安藥局,臺南市,東區,中華東路2段49號,06-2084861
開業,藥事機構,林英文藥局,臺南市,東區,裕農路八六六之二號,06-3311252
開業,藥事機構,家庭藥局,臺南市,東區,生產路369之3號,06-2607298
開業,藥事機構,崇仁藥局,臺南市,東區,崇學路231號,06-2894115
開業,藥事機構,慈惠藥局,臺南市,東區,前鋒路27號,06-2760746
開業,藥事機構,群康藥局,臺南市,東區,中華東路3段238號1樓,06-3353098
開業,藥事機構,善林藥局,臺南市,東區,崇明路123號,06-3364699
開業,藥事機構,早安藥師藥局,臺南市,東區,富農街1段300巷1之1號,06-3351295
開業,藥事機構,辰光藥局,臺南市,東區,裕農路670-672號,06-2674585
開業,藥事機構,揚名藥局,臺南市,東區,莊敬路158巷13號,06-2369983
開業,藥事機構,和信藥局,臺南市,東區,裕農路27之1號,06-2094312
開業,藥事機構,連春藥局,臺南市,東區,莊敬路15 號,06-2083685
開業,藥事機構,一品健康藥局,臺南市,東區,崇學路50-1號,06-2676825
開業,藥事機構,媽媽藥師藥局,臺南市,東區,裕文路45號,06-3350490
開業,藥事機構,盈如藥局,臺南市,東區,中華東路3段68號1樓,06-2895839
開業,藥事機構,微風藥局,臺南市,東區,崇學路92號1樓,06-2678490
開業,藥事機構,羽杏藥局,臺南市,東區,崇學路259號,06-2893330
開業,藥事機構,美立康藥局,臺南市,東區,裕文路72號1樓,06-3316363
開業,藥事機構,麗生藥師藥局,臺南市,東區,崇德路565號,06-3360820
開業,藥事機構,禾田聯合藥局,臺南市,東區,崇明路191號,06-2892393
開業,藥事機構,嘉嘉藥局,臺南市,東區,東興路20巷36號,
開業,藥事機構,太和藥師藥局,臺南市,東區,仁和路51-1號,06-2906063
開業,藥事機構,翌宏藥師藥局,臺南市,東區,崇善路471號,06-2899555
開業,藥事機構,崇明台安藥局,臺南市,東區,崇明路304號,06-2900350
開業,藥事機構,幸運藥局,臺南市,東區,東門路二段201號,06-2371675
開業,藥事機構,悅橙藥局,臺南市,東區,崇明路459號1樓,06-2605168
開業,藥事機構,和德藥局,臺南市,東區,  崇德路497號,06-2882789
開業,藥事機構,英菩藥局,臺南市,東區,榮譽街121-1號,
開業,藥事機構,崇裕藥局,臺南市,東區,崇明路648號1樓,06-2893942
開業,藥事機構,榮記健康藥局,臺南市,東區,育樂街156-4號底層,06-2360088
開業,藥事機構,盈仁藥局,臺南市,東區,中華東路三段380巷55弄27號,06-2900372
開業,藥事機構,二十街藥局,臺南市,東區,崇明二十街13號,06-2609950、06-2609782
開業,藥事機構,鶴龍健保藥局,臺南市,東區,林森路一段190號1樓,06-2608225
開業,藥事機構,台和群康藥局,臺南市,東區,崇善路547號1樓,06-2891360
開業,藥事機構,宜康藥局仁和店,臺南市,東區,仁和路105-1號1樓,
開業,藥事機構,榮恩藥局,臺南市,東區,中華東路2段337號,06-3350166
開業,藥事機構,宏祐健保藥局,臺南市,南區,新孝路59號,06-2632580
開業,藥事機構,為美藥局,臺南市,南區,大同路二段558-1、560-1號1樓,06-2679315
開業,藥事機構,大吉藥局,臺南市,南區,新興路437號,06-62651423
開業,藥事機構,久芳藥局,臺南市,南區,喜樹路340巷166號,06-2625209
開業,藥事機構,重光藥局,臺南市,南區,鹽埕路272號,06-2618087
開業,藥事機構,大仁藥局,臺南市,南區,新孝路三十號,06-2610673
開業,藥事機構,興南藥局,臺南市,南區,中華南路2段70號,06-2920909
開業,藥事機構,龍天葵藥局,臺南市,南區,新興路501號,06-2925420
開業,藥事機構,樺昇藥局德興店,臺南市,南區,德興路175號之1,06-2616791
開業,藥事機構,康而富藥局,臺南市,南區,金華路一段375號1樓,06-2639373
開業,藥事機構,灣里藥局,臺南市,南區,灣裡路261號,06-2625620
開業,藥事機構,欣昌藥局,臺南市,南區,興南街115號,06-2623217
開業,藥事機構,日大中西藥局,臺南市,南區,永興1街32號,06-2612817
開業,藥事機構,市安藥師藥局,臺南市,南區,國民路142號,06-2882627
開業,藥事機構,一航藥局,臺南市,南區,大同路2段348號,06-2138147
開業,藥事機構,怡安婦幼中心藥局,臺南市,南區,新興里夏林路190號1樓,06-2635923、0935-639588
開業,藥事機構,佑佑藥局,臺南市,南區,健康路2段349號二樓,0939-992652
開業,藥事機構,大愛藥局,臺南市,南區,大同路2段182號1樓,06-2137587
開業,藥事機構,信昌藥局,臺南市,南區,建南路二三五號,06-2635591
開業,藥事機構,赤繐藥師健保藥局,臺南市,南區,金華路2段96號,06-2656368
開業,藥事機構,亮潔藥師藥局,臺南市,南區,金華路2段344號,06-2215021、06-2217306
開業,藥事機構,為仁藥師藥局,臺南市,南區,大同路2段106號,06-2139376
開業,藥事機構,仁佑藥局,臺南市,南區,健康路2段15號,06-2645955
開業,藥事機構,國山健保特約藥局,臺南市,南區,大同路2段478號,06-2159570
開業,藥事機構,祥佑藥師藥局,臺南市,南區,金華路二段177號,
開業,藥事機構,樺昇藥局,臺南市,南區,明興路1367號,06-2625571
開業,藥事機構,海山藥局,臺南市,南區,新興路400號,06-2617788
開業,藥事機構,永福藥局,臺南市,南區,金華路2段259號,06-62651408
開業,藥事機構,總雁藥局,臺南市,南區,鯤身路94號,06-2627554
開業,藥事機構,豐陽藥局,臺南市,南區,文南路115號,06-2610628
開業,藥事機構,裕仁藥局,臺南市,南區,新興路154號,06-2614263
開業,藥事機構,裕祥藥局,臺南市,南區,金華路1段228號,06-2635796
開業,藥事機構,吉祥藥局,臺南市,南區,文南路117號,06-2612253、06-2632853
開業,藥事機構,全民藥局,臺南市,南區,喜樹路73之18號,06-2626814、06-2625814
開業,藥事機構,安心藥局,臺南市,南區,喜樹路151巷33號,06-2622570
開業,藥事機構,鹽埕藥局,臺南市,南區,鹽埕路68號,06-2651961
開業,藥事機構,興泰藥局,臺南市,南區,金華路1段165號,06-2653638
開業,藥事機構,府城藥局,臺南市,南區,新興路194號,06-2614285、06-2643669
開業,藥事機構,信一藥局,臺南市,南區,中華南路2段303號,06-2640770
開業,藥事機構,成安藥局,臺南市,南區,三和街20號,06-2654774
開業,藥事機構,杏元藥局,臺南市,南區,喜樹路256號,06-2622473
開業,藥事機構,聖安健保藥局,臺南市,南區,健康路二段173號1樓,06-2916898
開業,藥事機構,健康啄木鳥藥局,臺南市,南區,健康路2段75號,06-2631383
開業,藥事機構,千越藥局,臺南市,南區,金華路二段247號,06-2910303
開業,藥事機構,隆連藥局,臺南市,南區,鹽珵路175號,06-2648810、06-2647710
開業,藥事機構,原才藥局,臺南市,北區,實踐街78號,06-2261723、06-2821733
開業,藥事機構,真安藥局,臺南市,北區,公園路698號,06-2516784
開業,藥事機構,聖心藥局,臺南市,北區,大武街401巷1弄12號,06-2523021、06-2818523
開業,藥事機構,豐桂藥局,臺南市,北區,大和路218號,06-2598915
開業,藥事機構,華泰藥局,臺南市,北區,開元路359之2號,06-2372790
開業,藥事機構,大昌藥局,臺南市,北區,北安路1段136號1樓,06-2519121
開業,藥事機構,大道藥局,臺南市,北區,北門路二段590號,06-2513000
開業,藥事機構,佳愛藥局,臺南市,北區,西門路四段341巷2號,06-2516697
開業,藥事機構,百氏康藥局,臺南市,北區,北安路一段120號,06-2514199
開業,藥事機構,公園店菁安藥局,臺南市,北區,公園路611號,06-2834488
開業,藥事機構,早安北園藥師藥局,臺南市,北區,北園街6-6號,06-2759515
開業,藥事機構,小北藥局,臺南市,北區,西門路4段138號,06-2821189
開業,藥事機構,城藥局,臺南市,北區,東光路2段128號,06-2368825
開業,藥事機構,信心藥局,臺南市,北區,公園路546號,06-2515359
開業,藥事機構,興龍藥局,臺南市,北區,長榮路5段110號,06-2367992
開業,藥事機構,好鄰居藥局,臺南市,北區,公園路128號二樓7室,06-2219015
開業,藥事機構,全一藥局,臺南市,北區,和緯路4段95巷38號,06-2580021
開業,藥事機構,澄清堂藥局,臺南市,北區,勝利路495號,06-2377224
開業,藥事機構,永生藥局,臺南市,北區,公園路481號,06-2283087
開業,藥事機構,安良藥局,臺南市,北區,公園路900巷3號,06-2523087
開業,藥事機構,宏吉藥局,臺南市,北區,大興街224號,06-2589692
開業,藥事機構,華成藥局,臺南市,北區,南園街111號,06-2344553
開業,藥事機構,嘉洲藥局,臺南市,北區,文賢路240號,06-2583180
開業,藥事機構,徐大藥局,臺南市,北區,北園街88號,06 2361435
開業,藥事機構,眾安藥局,臺南市,北區,文賢路1034號,06-2588339
開業,藥事機構,惠光藥局,臺南市,北區,文賢路236號,06-2586316
開業,藥事機構,坤梅中西藥局,臺南市,北區,大興街501號,06-2595901
開業,藥事機構,賀康藥局,臺南市,北區,公園路701號,06-2870433、06-2819515
開業,藥事機構,玖大藥局,臺南市,北區,勝利路383號,06-2752048
開業,藥事機構,佳家藥局,臺南市,北區,忠義路3段22號,06-2252165
開業,藥事機構,一方藥局,臺南市,北區,開元路485巷41弄28號一樓,06-2742419
開業,藥事機構,千多藥局,臺南市,北區,金華路5段一號一樓,06-2295533
開業,藥事機構,美心藥局,臺南市,北區,成功路132之1號1樓,06-2292518、06-2262978
開業,藥事機構,心心藥局,臺南市,北區,成功路72號,06-2221166
開業,藥事機構,永順藥局,臺南市,北區,公園路892巷25號,06-2519025
開業,藥事機構,慈恩藥師藥局,臺南市,北區,北園街15號,06-2005658
開業,藥事機構,芳鄰藥局,臺南市,北區,公園北路一五二號,06-2811101
開業,藥事機構,一加恩聯合藥局,臺南市,北區,開元路四二二號,06-2081172
開業,藥事機構,康友藥師藥局,臺南市,北區,和緯路二段243號,06-2520666
開業,藥事機構,佳一藥局,臺南市,北區,北門路2段532號,06-2511947
開業,藥事機構,開元台安藥局,臺南市,北區,開元路288號,06-2763943
開業,藥事機構,新向生藥局,臺南市,北區,北門路2段547巷8號,06-2525267
開業,藥事機構,欣平藥局,臺南市,北區,勝利路425號,06-2354293
開業,藥事機構,王大藥局,臺南市,北區,開元路156號,06-2086169
開業,藥事機構,健盟藥局,臺南市,北區,北安路一段206號1樓,06-2828288
開業,藥事機構,良佑堂藥局,臺南市,北區,文賢路299號,06-2586223
開業,藥事機構,海安藥師藥局,臺南市,北區,海安路三段902號,06-2814600
開業,藥事機構,嘉星藥師大藥局,臺南市,北區,開元路339號1樓,06-2093737
開業,藥事機構,大正藥局,臺南市,北區,公園南路357號1樓,06-2226899
開業,藥事機構,長榮健保藥局,臺南市,北區,長榮路四段139號1樓,06-2202370
開業,藥事機構,若安藥局,臺南市,北區,開元路103號1樓,06-2095666
開業,藥事機構,美康藥局,臺南市,北區,公園路375-5號,06-2810311
開業,藥事機構,和緯啄木鳥藥局,臺南市,北區,和緯路2段176號,06-2514462
開業,藥事機構,佳佳藥局,臺南市,北區,開元路306-1號,06-2740783
開業,藥事機構,公園台安藥局,臺南市,北區,公園路840號,06-2518402
開業,藥事機構,尚慶藥局,臺南市,北區,西門路四段86號1樓,06-2511258
開業,藥事機構,伍德藥局,臺南市,安平區,安平路131號,62207904
開業,藥事機構,趙藥師藥局,臺南市,安平區,安北路390號,06-3915695
開業,藥事機構,益生堂藥局,臺南市,安平區,安平路646號,06-2209336
開業,藥事機構,瑞峰藥局,臺南市,安平區,安平路500巷17弄23號,06-2242771
開業,藥事機構,益通藥局,臺南市,安平區,建平5街26號,06-2974851
開業,藥事機構,新本德藥局,臺南市,安平區,延平街29號,06-2251357
開業,藥事機構,正德中西藥局,臺南市,安平區,國平路358號,
開業,藥事機構,泰銘藥局,臺南市,安平區,健康3街207號,06-2959323
開業,藥事機構,康活藥局,臺南市,安平區,健康3街186號,0927-288398
開業,藥事機構,康福藥師藥局,臺南市,安平區,永華路二段1059號之1,06-2939068
開業,藥事機構,全家藥局,臺南市,安平區,華平路170號,06-2939000
開業,藥事機構,丁丁藥局,臺南市,安平區,永華路2段236號,06-2938966
開業,藥事機構,可力藥局,臺南市,安平區,華平路652號之1樓,06-2971960
開業,藥事機構,人仁藥局,臺南市,安平區,慶平路281號,06-2998667
開業,藥事機構,幼安藥局,臺南市,安平區,華平路503號,06-2937733
開業,藥事機構,蘋果藥師藥局,臺南市,安平區,健康三街206號,
開業,藥事機構,永華藥局,臺南市,安平區,永華路二段787號之1,
開業,藥事機構,服安藥局,臺南市,安平區,安平路151號,06-2216635
開業,藥事機構,中信藥局,臺南市,安平區,永華路2段716號,06-2978697
開業,藥事機構,康馥藥局,臺南市,安平區,華平路545-1號,06-2998328
開業,藥事機構,安平藥局,臺南市,安平區,國平路552巷113號1樓,06-2970551
開業,藥事機構,宜康永華藥局,臺南市,安平區,國平里永華路二段785號1樓,06-2930119
開業,藥事機構,永康藥局永華店,臺南市,安平區,永華路2段702號,06-2951552
開業,藥事機構,博理藥局,臺南市,安平區,安平路676號,06-2202521
開業,藥事機構,保安康藥局,臺南市,安南區,安中路一段793號,
開業,藥事機構,宜康藥局同安店,臺南市,安南區,同安路235號1樓,06-2470720
開業,藥事機構,宜康安和藥局,臺南市,安南區,安和路一段184號1樓,06-2479552
開業,藥事機構,東南藥局,臺南市,安南區,長溪路3段459巷2號,06-2562192
開業,藥事機構,慈安藥局,臺南市,安南區,大安街53號,06-2551117
開業,藥事機構,聖達藥局,臺南市,安南區,府安路5段146號,06-2585057
開業,藥事機構,慶泰藥局,臺南市,安南區,安中路1段189巷47號,06-2553110
開業,藥事機構,翰昌藥局,臺南市,安南區,北安路2段119號,06-2596372
開業,藥事機構,泰山藥局,臺南市,安南區,海佃路1段207號,06-2582073
開業,藥事機構,守利藥局,臺南市,安南區,安和路4段616號,06-3559347
開業,藥事機構,慶春藥局,臺南市,安南區,城西街1段75號,06-2571719
開業,藥事機構,嘉庭藥局,臺南市,安南區,國安街118號,06-2597612
開業,藥事機構,友信藥局,臺南市,安南區,北安路2段八十六號,06-2829462
開業,藥事機構,仲宏藥局,臺南市,安南區,安中路3段431號,06-2567798
開業,藥事機構,明杰藥局,臺南市,安南區,大安街98號,06-2567821
開業,藥事機構,平光藥局,臺南市,安南區,安中路一段822號,06-2565635、06-2459641
開業,藥事機構,建壽藥局,臺南市,安南區,海佃路2段572號,06-2555388
開業,藥事機構,昌泰藥局,臺南市,安南區,海佃路1段158巷57號,06-2591971
開業,藥事機構,旺生藥局,臺南市,安南區,同安路68巷23號,06-2476888
開業,藥事機構,和順藥局,臺南市,安南區,安中路1段701巷33－35號,06-2566648
開業,藥事機構,建光藥局,臺南市,安南區,海佃路1段164號,06-2583966
開業,藥事機構,海佃藥局,臺南市,安南區,國安街138號,06-2587831
開業,藥事機構,忠山藥局,臺南市,安南區,國安街56巷75號,06-2582708
開業,藥事機構,長青大藥局,臺南市,安南區,安和路1段93號,06-2812896
開業,藥事機構,涂逸權藥師藥局,臺南市,安南區,長溪路1段314號,06-2560583
開業,藥事機構,樂成藥局,臺南市,安南區,安和路1段159巷83號,06-2568576
開業,藥事機構,土城藥師藥局,臺南市,安南區,城北路75號,06-2571872
開業,藥事機構,永昌藥局,臺南市,安南區,安昌街174巷191弄127號,06-2476092
開業,藥事機構,佳南藥局,臺南市,安南區,安中路1段743號,06-2465448
開業,藥事機構,文安藥局,臺南市,安南區,同安路四O二號,06-2287001
開業,藥事機構,景惠藥局,臺南市,安南區,安中路4段2號,06-2557060
開業,藥事機構,安佃藥局,臺南市,安南區,海佃路4段388巷107弄22號一樓,06-2465658
開業,藥事機構,安順藥局,臺南市,安南區,安和路1段164號,06-2550447
開業,藥事機構,安中藥局,臺南市,安南區,安中路6段718號,06-2570500
開業,藥事機構,惠安藥局,臺南市,安南區,海佃路1段348、350號,06-3588578
開業,藥事機構,泰赫中西藥局,臺南市,安南區,安中路4段79號,06-2562317
開業,藥事機構,新資生藥師藥局,臺南市,安南區,城北路52號之1樓,06-2571153
開業,藥事機構,三井藥局,臺南市,安南區,國安街1號1樓,06-2583195
開業,藥事機構,康悅健藥師藥局,臺南市,安南區,安和路5段149-2號,06-3556382
開業,藥事機構,欣庭藥局,臺南市,安南區,國安街156巷186號,06-2806248
開業,藥事機構,宏恩藥局,臺南市,安南區,長溪路1段52號,06-2474513
開業,藥事機構,佳美藥局,臺南市,安南區,安和路一段38號,
開業,藥事機構,安南啄木鳥藥局,臺南市,安南區,安和路1段107號1樓,06-2821265
開業,藥事機構,三多藥師藥局,臺南市,安南區,海佃路一段194號1樓,06-2581189
開業,藥事機構,日安藥局,臺南市,安南區,安和路2段269號1樓,
開業,藥事機構,新安和藥局,臺南市,安南區,安和路一段360號,
開業,藥事機構,怡品藥局,臺南市,永康區,大灣路870號,06-2057346、0952-115055
開業,藥事機構,永大啄木鳥藥局,臺南市,永康區,永大路二段397號,06-2071575
開業,藥事機構,育安藥局,臺南市,永康區,中興里中華路274號,06-63116850
開業,藥事機構,小東藥局,臺南市,永康區,小東路573號,0938-973205
開業,藥事機構,永仁藥局,臺南市,永康區,永大路二段85號,06-2730816
開業,藥事機構,祐誠藥局,臺南市,永康區,中山路85號,
開業,藥事機構,信仁藥局,臺南市,永康區,中華西街149號,06-2337755
開業,藥事機構,鹽行健保藥局,臺南市,永康區,中正南路861號,06-2435112
開業,藥事機構,媽媽藥師藥局復國店,臺南市,永康區,復國路88號,06-3131080
開業,藥事機構,愛兒屋藥局,臺南市,永康區,中正路110號,06-2033946
開業,藥事機構,愛兒屋藥局,臺南市,永康區,中正路110號,06-7034510
開業,藥事機構,睿禾藥局,臺南市,永康區,東橋一路3號,06-3023868
開業,藥事機構,濟康藥師藥局,臺南市,永康區,勝利里勝學路281號,06-3122775
開業,藥事機構,仁安藥師藥局,臺南市,永康區,崑山里大仁街61號,06-2056055
開業,藥事機構,誠康藥局,臺南市,永康區,中山東路113號1樓,06-3022005
開業,藥事機構,華大藥妝藥局,臺南市,永康區,中山北路97號一樓,06-3015277
開業,藥事機構,俐欣藥局,臺南市,永康區,大仁街206號1樓,06-2050777
開業,藥事機構,一加藥局,臺南市,永康區,正強里中正路93號,06-2039098
開業,藥事機構,美德生醫藥局,臺南市,永康區,復國一路496號1樓,06-2030463
開業,藥事機構,菁安大灣藥局,臺南市,永康區,中灣里大灣路184號,
開業,藥事機構,昱賢藥師藥局中正店,臺南市,永康區,中正路141、143號1樓,06-2021535
開業,藥事機構,家嘉藥局,臺南市,永康區,復國一路206號,06-3121328
開業,藥事機構,大力藥局大灣店,臺南市,永康區,大灣里大灣路376號1樓,
開業,藥事機構,瑞德大藥局,臺南市,永康區,大灣路183號,06-2710398
開業,藥事機構,裕安藥局,臺南市,永康區,中華二路385號,06-3135216
開業,藥事機構,恆安藥局,臺南市,永康區,大灣路243號,06-2712389
開業,藥事機構,尚薔藥局,臺南市,永康區,小東路605號,
開業,藥事機構,珊瑚藥局大灣店,臺南市,永康區,大灣路503號,06-2054235
開業,藥事機構,群美藥局,臺南市,永康區,民族路398號1樓,06-2733368
開業,藥事機構,大昌藥局中華店,臺南市,永康區,中華路699號1樓,06-3036191
開業,藥事機構,合茂藥局,臺南市,永康區,中華路778號,06-2019008
開業,藥事機構,鐘藥局,臺南市,永康區,大灣路1012號,06-2726635
開業,藥事機構,良方藥局,臺南市,永康區,永康里中山路39號,06-2325057
開業,藥事機構,上允藥局,臺南市,永康區,成功路250號,06-2315460
開業,藥事機構,吉立藥局,臺南市,永康區,永康街7 7號,06-2334993
開業,藥事機構,重安藥局,臺南市,永康區,龍潭街190號,06-2327271
開業,藥事機構,正華藥局,臺南市,永康區,永康街17號,06-2323618
開業,藥事機構,正和藥局,臺南市,永康區,永中街4 7號,06-2323592
開業,藥事機構,嘉軒藥局,臺南市,永康區,西勢里富強路一段351號,06-2713329
開業,藥事機構,一航藥局,臺南市,永康區,復國一路233號,06-2010101
開業,藥事機構,協安藥局,臺南市,永康區,中山南路623號,06-2323455
開業,藥事機構,百聖藥局,臺南市,永康區,自強路330巷6號,06-2336549
開業,藥事機構,家安藥局,臺南市,永康區,龍潭街234號,06-2322453
開業,藥事機構,谷泰藥局,臺南市,永康區,大灣路366號,06-2710768
開業,藥事機構,勝利藥局,臺南市,永康區,勝學路三十六號,06-3139700
開業,藥事機構,良心堂藥局,臺南市,永康區,華興街四十七號,06-2717068
開業,藥事機構,慈惠藥師保健藥局,臺南市,永康區,國光七街71號,06-2718968
開業,藥事機構,邱藥局,臺南市,永康區,中華西街55號1樓,06-2826363
開業,藥事機構,友信藥局,臺南市,永康區,五福街一一四號,06-2323714
開業,藥事機構,林藥局,臺南市,永康區,中正南路760號,06-2532606
開業,藥事機構,建保藥局,臺南市,永康區,忠義街44巷2號,06-3125998
開業,藥事機構,大陸藥局,臺南市,永康區,復興路406號,06-3139670
開業,藥事機構,安安藥局,臺南市,永康區,大灣路834號,06-2738102
開業,藥事機構,都都藥局,臺南市,永康區,中山南路一二八號,06-2354898
開業,藥事機構,維康藥局,臺南市,永康區,大橋二街141之1號,06-2016345
開業,藥事機構,菩提藥局,臺南市,永康區,復國一路307號,06-2035799
開業,藥事機構,北一藥局,臺南市,永康區,中山南路四十三巷五號,06-2012215
開業,藥事機構,菁安藥局,臺南市,永康區,中華路五九七號,06-2031203
開業,藥事機構,欣康藥局,臺南市,永康區,自強路三九四號,06-2027346
開業,藥事機構,久大藥師藥局,臺南市,永康區,大灣路一0五八號,06-2724 195
開業,藥事機構,永康藥局,臺南市,永康區,尚頂里中華路九八八號之一,06-2548606
開業,藥事機構,華安藥局,臺南市,永康區,六合里中華二路282號,06-2021030
開業,藥事機構,崑山藥局,臺南市,永康區,大灣路八八三號,06-2059856
開業,藥事機構,丁丁藥局永康店,臺南市,永康區,中山南路282-3號1樓,06-2019720
開業,藥事機構,三寧藥局,臺南市,永康區,崑山里永大路二段一四五號,06-2739914
開業,藥事機構,和康藥局,臺南市,永康區,永康里中山北路三十二號,06-2325144
開業,藥事機構,大灣藥局,臺南市,永康區,大灣里民族路二九八號,06-2728774
開業,藥事機構,方藥師藥局,臺南市,永康區,大橋一街五十七之三號,06-3025013
開業,藥事機構,莘莘藥局,臺南市,永康區,永明街五十九號,06-2033611
開業,藥事機構,麻吉的藥局,臺南市,永康區,中山北路一0八號,06-2316123
開業,藥事機構,大正藥局,臺南市,永康區,中華二路298號,06-3021599
開業,藥事機構,新安生堂藥局,臺南市,永康區,富強路一段五十號,06-2717068
開業,藥事機構,菩提藥局富強店,臺南市,永康區,富強路一段153號1樓,06-2728327
開業,藥事機構,仁杏藥師藥局,臺南市,永康區,復興路11號,06-2731702
開業,藥事機構,富農藥師藥局,臺南市,永康區,永華路245號1樓,06-2738976
開業,藥事機構,仙輝藥局,臺南市,永康區,復華七街90號1樓,06-2030188
開業,藥事機構,美日康藥局,臺南市,永康區,中正南路817號,0952-985850
開業,藥事機構,維康藥局奇美店,臺南市,永康區,正新街65號,06-2814441
開業,藥事機構,麗生藥師藥局,臺南市,永康區,大灣路280號,06-2737099
開業,藥事機構,北安藥局,臺南市,永康區,中山東路69號1樓,06-3024933
開業,藥事機構,上宜藥局,臺南市,永康區,中華一路70號,06-3116288
開業,藥事機構,佑健康藥師藥局,臺南市,永康區,文化路202之3號,06-2316257
開業,藥事機構,永大藥局,臺南市,永康區,聖龍街150號,06-2024668、06-2024668
開業,藥事機構,昱賢藥師藥局,臺南市,永康區,永大路二段1312號,06-2315371
開業,藥事機構,美日新藥局,臺南市,永康區,鹽行里中正北路62號,06-2420980
開業,藥事機構,安康藥局永大店,臺南市,永康區,永大路二段665、667、669號,06-2028438
開業,藥事機構,勝佳藥局,臺南市,永康區,復國二路38巷12號,06-3130729
開業,藥事機構,神鳳藥局,臺南市,永康區,中華路619巷15號,06-2328989
開業,藥事機構,福德藥局,臺南市,永康區,復興路一四二之一號,06-3131721
開業,藥事機構,德元藥局,臺南市,永康區,復國一路四五二號,06-2030668
開業,藥事機構,永生藥局,臺南市,永康區,復國一路四四一號,06-2315756
開業,藥事機構,獅甲藥局,臺南市,歸仁區,六甲里六甲路203號,06-3388387
開業,藥事機構,萊德藥局,臺南市,歸仁區,中山路二段78號,
開業,藥事機構,幸福藥局,臺南市,歸仁區,中山路2段88號,06-3308149
開業,藥事機構,微笑藥局,臺南市,歸仁區,中山路二段125號,06-3303177
開業,藥事機構,醫康藥局,臺南市,歸仁區,武東里明德新村2號,0914-085181
開業,藥事機構,和雅藥局,臺南市,歸仁區,民權三街96號,06-2309919、0927-596536
開業,藥事機構,道仁藥局,臺南市,歸仁區,中山路一段四七八號,06-2301967
開業,藥事機構,大仁藥師藥局,臺南市,歸仁區,中山路3段468號,06-2307589
開業,藥事機構,躍達藥局,臺南市,歸仁區,大智街10號,06-2301360
開業,藥事機構,歐美藥師藥局,臺南市,歸仁區,民權北路六十八號,06-5954515
開業,藥事機構,仁銨藥局,臺南市,歸仁區,中山路一段三二二號,06-3304861
開業,藥事機構,大力藥局,臺南市,歸仁區,中山路二段一五一號,06-2398273
開業,藥事機構,安麗兒藥局,臺南市,歸仁區,辜厝里中山路二段七十一號,06-23999212
開業,藥事機構,新光藥局,臺南市,歸仁區,許厝里中山路一段320號,06-3305249
開業,藥事機構,倍安藥局,臺南市,歸仁區,長榮路1段232號,06-2782913
開業,藥事機構,生祥大藥局,臺南市,歸仁區,中山路二段46之1號,06-2396538
開業,藥事機構,德昌藥師藥局,臺南市,歸仁區,中山路一段516、518號,06-3303533
開業,藥事機構,安新藥局,臺南市,歸仁區,民族北街17巷14號,06-3306008
開業,藥事機構,杏安藥局,臺南市,新化區,信義路三二 0號,06-5801081
開業,藥事機構,你好藥局,臺南市,新化區,忠孝路289號1樓,06-5980545
開業,藥事機構,添福藥局,臺南市,新化區,武安里中正路373號,06-5906053
開業,藥事機構,新化弘安藥局,臺南市,新化區,太平里中正路703號,06-5973000
開業,藥事機構,全家康藥師藥局,臺南市,新化區,北勢里中正路1207號,06-5980866
開業,藥事機構,新化健保藥局,臺南市,新化區,中山路507號,06-5983328
開業,藥事機構,富傑藥局,臺南市,新化區,中正路545號,06-5906085
開業,藥事機構,炳騰藥局,臺南市,新化區,那拔里290號,06-5911687
開業,藥事機構,林藥局,臺南市,新化區,中正路606之1號,06-5984210
開業,藥事機構,聲安藥局,臺南市,新化區,護國里中山路一五八號,06-5902261
開業,藥事機構,來德藥局,臺南市,新化區,中山路二三二號,06-5800193
開業,藥事機構,景惠藥局,臺南市,新化區,護國里中山路185號,06-5909659
開業,藥事機構,元一藥師藥局,臺南市,新化區,中正路528號,06-5984477
開業,藥事機構,千福藥局,臺南市,新化區,中山路424號1樓,06-5905862
開業,藥事機構,安麗兒藥局新化店,臺南市,新化區,忠孝路116之3號,06-5896029
開業,藥事機構,祐榮藥局,臺南市,新化區,忠孝街一九二之五號,06-5983607
開業,藥事機構,欣華藥局,臺南市,新化區,護國里中正路四0四號,06-2720657
開業,藥事機構,又佳藥局,臺南市,左鎮區,中正里156之9號,06-5731597
開業,藥事機構,勝雄藥局,臺南市,左鎮區,中正里95號,06-5732535
開業,藥事機構,萬龍藥局,臺南市,玉井區,玉井里中正路133號,06-5742876
開業,藥事機構,晨暉藥局,臺南市,玉井區,中華路184號,06-5749695
開業,藥事機構,伊立安藥局,臺南市,玉井區,玉田里中山路143號1樓,06-5747001
開業,藥事機構,大眾藥局,臺南市,玉井區,中華路237號,06-5744099
開業,藥事機構,博愛中西藥局,臺南市,玉井區,玉田里中正路二三八號,06-5743036
開業,藥事機構,柏林藥局,臺南市,玉井區,玉田里中正路224號,06-5742386
開業,藥事機構,玉井藥局,臺南市,玉井區,玉田里中華路47號,06-5742271
開業,藥事機構,至家藥局,臺南市,楠西區,中正路129號,06-5751371
開業,藥事機構,信安藥局,臺南市,楠西區,茄拔路165號,06-5753177
開業,藥事機構,太子藥局,臺南市,仁德區,太子路338號,06-2729906
開業,藥事機構,祥鶴藥局,臺南市,仁德區,德糖路470號,06-2490904
開業,藥事機構,仁德啄木鳥藥局,臺南市,仁德區,中山路397號1樓,06-2707964
開業,藥事機構,皇仁藥局,臺南市,仁德區,德善路293號,06-2793234
開業,藥事機構,日康藥局,臺南市,仁德區,田厝里中正路一段五四一之一號,06-2663635
開業,藥事機構,春風藥局,臺南市,仁德區,中正路二段673號,06-2493463
開業,藥事機構,仁德市安藥師藥局,臺南市,仁德區,中正西路25號,06-2661933
開業,藥事機構,華仁藥局,臺南市,仁德區,新田里中正路2段462號,06-2797773
開業,藥事機構,慧安藥師藥局,臺南市,仁德區,後壁里德糖路389號1樓,06-2706638
開業,藥事機構,成吉藥局仁義店,臺南市,仁德區,仁義路42之1號,06-2497307
開業,藥事機構,大力藥局仁德店,臺南市,仁德區,後壁里中正路二段二六四號,06-2705958
開業,藥事機構,滋生藥局,臺南市,仁德區,仁義里中山路362號,06-2705057
開業,藥事機構,山川中西藥局,臺南市,仁德區,後壁里中正路二段325號,06-2794623
開業,藥事機構,歐大藥局,臺南市,仁德區,中洲里385之31號,06-2664831
開業,藥事機構,正全藥局,臺南市,仁德區,後壁里中正路二段180號,06-2793638
開業,藥事機構,龍岡藥局,臺南市,仁德區,成功里保華路90號,06-2904862
開業,藥事機構,振裕藥局,臺南市,仁德區,二行里二行一路一六五號,06-2661478
開業,藥事機構,劉藥局,臺南市,仁德區,後壁里中正路二段314號,06-2792401
開業,藥事機構,信昌藥局,臺南市,仁德區,中正路二段1160巷29號,06-2793897
開業,藥事機構,聖豐藥局,臺南市,仁德區,中生里中洲七十八之六號,06-2663588
開業,藥事機構,義德藥局,臺南市,關廟區,關廟里忠孝街七號,06-5954061
開業,藥事機構,歐藥局,臺南市,關廟區,松腳里四維街一00號,06-5953714
開業,藥事機構,新素界保養藥局,臺南市,關廟區,山西里武聖路26號,06-5959290
開業,藥事機構,政平藥局,臺南市,關廟區,香洋里巡府路四十二號,06-5957967
開業,藥事機構,安麗兒藥局關廟店,臺南市,關廟區,中山路2段50號,06-5951952
開業,藥事機構,健新藥局,臺南市,關廟區,香洋里中正路九四七號,06-5952093
開業,藥事機構,和聖藥局,臺南市,關廟區,中山路2段137之8號,
開業,藥事機構,躍達藥局關廟店,臺南市,關廟區,中山路2段137之7號,06-5961286
開業,藥事機構,盛德中西藥局,臺南市,關廟區,香洋里忠孝街五號,06-5951463
開業,藥事機構,全民藥局,臺南市,官田區,隆田里中山路1段40號,06-5791057
開業,藥事機構,高陞藥局,臺南市,官田區,官田里307號,06-6901241
開業,藥事機構,天佑藥局,臺南市,官田區,南部村一五0之三號,06-5794998
開業,藥事機構,麻豆啄木鳥藥局,臺南市,麻豆區,興國路56之23號,06-5714786
開業,藥事機構,華笙藥局,臺南市,麻豆區,中山路150之1號,06-5715568
開業,藥事機構,瑞美源藥局,臺南市,麻豆區,忠孝路7號,06-5711343
開業,藥事機構,廣安藥局,臺南市,麻豆區,光復路43號,06-5722358
開業,藥事機構,惠眾藥局,臺南市,麻豆區,三民路2號之1,06-5722636
開業,藥事機構,紘信藥局,臺南市,麻豆區,中山路147號,06-5711289、0919-126388
開業,藥事機構,市伍藥局,臺南市,麻豆區,中正路73號1樓,06-5724589
開業,藥事機構,台灣藥局,臺南市,麻豆區,信義路11之13號,06-5726126
開業,藥事機構,神農藥局,臺南市,麻豆區,東角里興中路一九五號,06-5721136
開業,藥事機構,信義藥局,臺南市,麻豆區,晉江里信義路三十四之十二號,06-5725120
開業,藥事機構,麻豆王藥局,臺南市,麻豆區,中山路十一之二號,06-5721001
開業,藥事機構,信興藥局,臺南市,麻豆區,興中路115號,06-5722002
開業,藥事機構,平安藥局,臺南市,麻豆區,興中路11號,06-5721225
開業,藥事機構,永福藥局,臺南市,麻豆區,仁愛路7號,06-5723329
開業,藥事機構,佑安藥局,臺南市,麻豆區,東角里興中路175巷3之16號,06-5721747
開業,藥事機構,安安藥局,臺南市,麻豆區,興中路88號,06-5727475
開業,藥事機構,大同藥局,臺南市,麻豆區,穀興里中山路59號,06-5722506
開業,藥事機構,杏林藥局,臺南市,麻豆區,興中路136號,06-5722692
開業,藥事機構,伯仲藥局,臺南市,佳里區,光復路124號,06-7228322
開業,藥事機構,佳里啄木鳥藥局,臺南市,佳里區,六安里六安17之22號,06-7236396
開業,藥事機構,百興藥局,臺南市,佳里區,文化路259號,06-7222735
開業,藥事機構,建和藥局,臺南市,佳里區,義民街88號,06-7223214
開業,藥事機構,安興藥局,臺南市,佳里區,中山路三四五號,06-7229550
開業,藥事機構,佑佑藥局,臺南市,佳里區,安西里文化路248號,06-7214426
開業,藥事機構,名鴻藥局,臺南市,佳里區,仁愛路三四七號,06-7215216
開業,藥事機構,賀康藥局,臺南市,佳里區,文化路二0七號,06-7221447
開業,藥事機構,家名藥局,臺南市,佳里區,延平路三五七號,06-7236695
開業,藥事機構,佳佳藥局,臺南市,佳里區,中山路386號,06-7227639
開業,藥事機構,星興藥局,臺南市,佳里區,延平路403號,06-7236993
開業,藥事機構,慈恩藥局,臺南市,佳里區,文化路300巷3號1樓,0917-117383
開業,藥事機構,雅倫藥局,臺南市,佳里區,建南街165號1樓,06-7229488
開業,藥事機構,佳里藥局,臺南市,佳里區,中山路359號,06-7212180
開業,藥事機構,新生中西藥局,臺南市,佳里區,新生路87號,06-7224563
開業,藥事機構,立昌藥局,臺南市,佳里區,光復路244號,06-7225314
開業,藥事機構,博亨藥局,臺南市,佳里區,延平路335號,06-7223715
開業,藥事機構,普羅藥局,臺南市,佳里區,新生路303號,06-7232252
開業,藥事機構,和馨藥局,臺南市,佳里區,延平路72及76號1樓,06-7238544
開業,藥事機構,萊安藥局,臺南市,佳里區,中山路222號,06-7223780
開業,藥事機構,黃藥師藥局,臺南市,佳里區,忠孝路293號1樓,06-7217303
開業,藥事機構,永星藥局,臺南市,佳里區,文化路176號,06-7234300
開業,藥事機構,春安中西藥局,臺南市,佳里區,延平路295號,06-7215835
開業,藥事機構,延平藥局,臺南市,佳里區,延平路45號,06-7236185
開業,藥事機構,佳晟藥局,臺南市,佳里區,光復路265號,06-7220732
開業,藥事機構,詠承藥局,臺南市,西港區,中山路三五八號,06-7959427
開業,藥事機構,長榮藥局,臺南市,西港區,新興街12巷14號,06-7955520
開業,藥事機構,厚真藥局,臺南市,西港區,營西里2鄰後營17號,06-7962628
開業,藥事機構,俊傑藥局,臺南市,西港區,慶安里中山路257號,06-7950081
開業,藥事機構,慧安藥局,臺南市,西港區,慶安里慶安路九十五之九號,06-7955535
開業,藥事機構,建昌藥局,臺南市,七股區,大寮里1之11號,06-7873777
開業,藥事機構,建昌藥局漚汪店,臺南市,將軍區,忠興里1之6號,06-7941889
開業,藥事機構,同安藥局,臺南市,將軍區,保源里苓保98之7號,06-7941646
開業,藥事機構,年豐藥局,臺南市,將軍區,忠興里29之2號,06-7946247
開業,藥事機構,學甲藥局,臺南市,學甲區,中正路177號,06-7832081
開業,藥事機構,慶安藥局,臺南市,學甲區,明宜里中正路247號,06-7833251
開業,藥事機構,三安藥局,臺南市,學甲區,明宜里濟生路186號,06-7834365
開業,藥事機構,生祥大藥局學甲店,臺南市,學甲區,華宗路376號,06-7838462、0935-068712
開業,藥事機構,世酆藥局,臺南市,學甲區,成功路11之1號,06-7838779
開業,藥事機構,心得藥局,臺南市,學甲區,建國路82號,06-7835087
開業,藥事機構,一安藥局,臺南市,學甲區,新達里華宗路441號,06-7835504
開業,藥事機構,芳鄰藥局,臺南市,學甲區,仁得里建國路一一九號,06-7822389
開業,藥事機構,慈生藥局,臺南市,學甲區,慈福里濟生路94之5號1樓,06-7821818
開業,藥事機構,信忠藥局,臺南市,學甲區,中正路274號,06-7832363
開業,藥事機構,謝藥局,臺南市,北門區,鯤江里777號,06-7864192
開業,藥事機構,聯馨藥局,臺南市,北門區,仁里里二重港151號,06-7861690
開業,藥事機構,憲宗藥局,臺南市,北門區,東壁里七0四號,06-7864225
開業,藥事機構,正德藥局,臺南市,新營區,忠義街5之4號,06-6324481
開業,藥事機構,啄木鳥藥師藥局,臺南市,新營區,民治路242號,06-6590428
開業,藥事機構,新日康藥局,臺南市,新營區,民權路63之3號,06-6332833
開業,藥事機構,康泰藥師藥局,臺南市,新營區,民生路16之1號1樓,06-6377807
開業,藥事機構,均安藥局,臺南市,新營區,三民路138之1附1號,06-6376987
開業,藥事機構,兆豐藥局,臺南市,新營區,忠政里中正路五十七之十六號,06-6352205
開業,藥事機構,仁愛藥局,臺南市,新營區,民權路82號,06-6320209
開業,藥事機構,健而康藥局,臺南市,新營區,民權里中山路200號,06-6355224
開業,藥事機構,永安藥局,臺南市,新營區,民生里民生路五十二之二號,06-6352732
開業,藥事機構,人安藥局,臺南市,新營區,信義街七十號,06-6320732、06-6376863
開業,藥事機構,麗暉藥師藥局,臺南市,新營區,三仙里民權路五十一號,06-6333479
開業,藥事機構,欣欣藥局,臺南市,新營區,太北里146之28號,06-6530179
開業,藥事機構,毛藥局,臺南市,新營區,民權里三民路108號,06-6323466、06-6359747
開業,藥事機構,吉利天然中西藥局,臺南市,新營區,民族路5之9號,06-6379168
開業,藥事機構,佑康藥局,臺南市,新營區,新進路二段103號,06-6354620
開業,藥事機構,美兆藥局,臺南市,新營區,中正路53之4號,06-6371188
開業,藥事機構,通安藥局,臺南市,新營區,三民路26之3號,06-6322908
開業,藥事機構,鴻達藥局,臺南市,新營區,復興路124號,06-6358837
開業,藥事機構,成大藥局,臺南市,新營區,太北里73之1號,06-6524398
開業,藥事機構,嘉南藥局,臺南市,新營區,中山路34之3號,06-6322613
開業,藥事機構,幼幼藥局,臺南市,新營區,復興路129之3號,0921-205725
開業,藥事機構,永麗藥師藥局,臺南市,新營區,三民路76之10號,06-6377899、06-6377898
開業,藥事機構,大安藥局,臺南市,新營區,中山路257號,06-6322366
開業,藥事機構,橘子藥局,臺南市,新營區,民權路96之15號,06-6351881
開業,藥事機構,台新藥局,臺南市,新營區,中正路86號,06-6350048
開業,藥事機構,安佳藥局,臺南市,新營區,民治路374號,06-6560535
開業,藥事機構,漢方藥局,臺南市,新營區,三民路58號,06-6335088
開業,藥事機構,三光堂藥局,臺南市,新營區,延平路57號,06-6322553
開業,藥事機構,新崇安藥局新營店,臺南市,新營區,復興路91號,06-6333302
開業,藥事機構,亞洲藥局,臺南市,新營區,復興路33之2號,06-6327366
開業,藥事機構,弘安藥局,臺南市,新營區,開元路61之11號,06-6327038
開業,藥事機構,張藥師藥局,臺南市,新營區,民權路45之1號,06-6329268
開業,藥事機構,德和堂中西藥局,臺南市,新營區,復興路20之2號,06-6322428
開業,藥事機構,詔安藥局,臺南市,新營區,中正路506號,06-6334020
開業,藥事機構,安立藥局,臺南市,新營區,中正路98號,06-6321689
開業,藥事機構,安和藥局,臺南市,新營區,三興街71號,06-6562998
開業,藥事機構,國泰藥局,臺南市,新營區,三民路97之1號,06-6329285
開業,藥事機構,人生藥局,臺南市,新營區,中山路249號,06-6322458
開業,藥事機構,華恩藥局,臺南市,後壁區,墨林里198號,06-6623491
開業,藥事機構,慈慧藥局,臺南市,後壁區,菁豐村六十八之二號,06-6621976
開業,藥事機構,嘉民藥局,臺南市,後壁區,嘉民里一四六號,06-6882115
開業,藥事機構,安溪藥局,臺南市,後壁區,福安里一0二之四八號,06-6362013、06-6333381
開業,藥事機構,瑞益藥局,臺南市,後壁區,嘉田里58之1號,06-6881486
開業,藥事機構,庭安藥局,臺南市,後壁區,墨林里菁寮336號,06-6621760
開業,藥事機構,源大醫藥局,臺南市,白河區,中正路55號,06-6831128
開業,藥事機構,文有藥局,臺南市,白河區,文明街35號,06-6851582
開業,藥事機構,泰安藥局,臺南市,白河區,外角里新興路四八七號,06-6840560
開業,藥事機構,芳瑜藥局,臺南市,白河區,永安里康樂路七十二號,06-6857379
開業,藥事機構,優生藥局,臺南市,白河區,新起街二之十九號,06-6831233
開業,藥事機構,博仁藥局,臺南市,白河區,仙草里60之10號,06-6852779
開業,藥事機構,大源醫藥局,臺南市,白河區,中山路172之2號,06-6852306
開業,藥事機構,新信安藥局,臺南市,白河區,中山路51號,06-6852173
開業,藥事機構,美恩健保藥局,臺南市,白河區,永安里中山路81號1樓,06-6858865
開業,藥事機構,安泰藥局,臺南市,白河區,永安里中正路93號1樓,06-6856700
開業,藥事機構,美尚藥局,臺南市,白河區,白河里康樂路43號,06-6853538、0929-154087
開業,藥事機構,津安藥局,臺南市,白河區,中山路58號,06-6852726
開業,藥事機構,協宏藥局,臺南市,白河區,竹門里九八之三號,06-6852961
開業,藥事機構,青山藥局,臺南市,東山區,東中里中興路二十三號,06-6862745、06-6802740
開業,藥事機構,杏春堂中西藥局,臺南市,東山區,中興路97號,06-6802682
開業,藥事機構,東昌藥局,臺南市,東山區,新東路一段二十七號,06-6801921
開業,藥事機構,一生堂藥局,臺南市,東山區,東河里66之1號,06-6232020
開業,藥事機構,永發藥局,臺南市,東山區,東中里中興路42號,06-6801577、0918-331319
開業,藥事機構,豐源中西藥局,臺南市,東山區,達雲路一段三十五號,06-6802615
開業,藥事機構,康健藥局,臺南市,六甲區,復興街55之1號,06-6990990
開業,藥事機構,俊雄藥局,臺南市,六甲區,仁愛街111號,06-6982673
開業,藥事機構,鄰家藥局,臺南市,六甲區,甲南里珊瑚路18號,06-6993465
開業,藥事機構,東泰藥局,臺南市,六甲區,中山路7號,06-6988888
開業,藥事機構,成安藥局,臺南市,六甲區,二甲里信義街252號,06-6984205
開業,藥事機構,民康藥局,臺南市,六甲區,中正路531之1號,06-6980980
開業,藥事機構,竹軒大藥局,臺南市,六甲區,甲南里民生路一五八號,06-6982258
開業,藥事機構,泰和藥局,臺南市,六甲區,中山路101號1樓,06-6989623
開業,藥事機構,慧佳藥局,臺南市,六甲區,建國街76號,06-6990892
開業,藥事機構,澍德中西藥局,臺南市,六甲區,中正路619號,06-6982910
開業,藥事機構,振德中西藥局,臺南市,六甲區,六甲里建國街四六號,06-6980197
開業,藥事機構,楊生藥局,臺南市,下營區,中山路一段90號,06-6891723
開業,藥事機構,健安藥局,臺南市,下營區,後街里中正北路六十七號,06-6790417
開業,藥事機構,壹勝藥局,臺南市,下營區,中山路二段六十六號,06-6890372
開業,藥事機構,保祐藥局,臺南市,下營區,新興里中山路一段一0五號,06-6891171
開業,藥事機構,弘昇藥局,臺南市,下營區,中正南路55號1樓,06-6790155
開業,藥事機構,維任藥局,臺南市,下營區,中正北路6號,06-6892259
開業,藥事機構,桂林堂藥局,臺南市,下營區,中山路一段2號,06-6892088
開業,藥事機構,復興藥局,臺南市,下營區,營前里復興街87號1樓,06-6898472、0937-667801
開業,藥事機構,維康藥局柳營店,臺南市,柳營區,太康里201-10號,06-6226228
開業,藥事機構,美安藥局,臺南市,柳營區,士林里柳營路二段十五號,06-6222906
開業,藥事機構,中山藥局,臺南市,柳營區,中山西路二段145號,06-6221696
開業,藥事機構,民生藥局,臺南市,鹽水區,三福路51號,06-6521071
開業,藥事機構,恩加藥局,臺南市,鹽水區,三福路70號,06-6521346
開業,藥事機構,信文藥師藥局,臺南市,鹽水區,中正路97號,06-6522804
開業,藥事機構,仁星藥局,臺南市,鹽水區,岸內里蔦松路八十二號,06-6529991
開業,藥事機構,惠生藥局,臺南市,鹽水區,中正路31號,06-6530669、06-6522279
開業,藥事機構,新崇安藥局,臺南市,鹽水區,朝琴路7號,06-6521293
開業,藥事機構,仁順藥局,臺南市,鹽水區,中境里中正路20號,06-521155
開業,藥事機構,專安藥局,臺南市,鹽水區,三生里民生路20之2號,06-6528739
開業,藥事機構,晶德昌藥局,臺南市,善化區,文光里中山路85號,06-7032222
開業,藥事機構,善美藥局,臺南市,善化區,坐駕里中正路456號,06-5852540、0933-275319
開業,藥事機構,大成藥局,臺南市,善化區,文昌里中正路四三九號,06-5816306
開業,藥事機構,米奇藥局,臺南市,善化區,大成路312號,06-5835147
開業,藥事機構,仁愛藥局,臺南市,善化區,中山路178號,06-5838245
開業,藥事機構,大昇藥局,臺南市,善化區,中山路一七九號,06-5833713、0919-890770
開業,藥事機構,嘉展藥師藥局,臺南市,善化區,建國路四十五號,06-5839112
開業,藥事機構,和泰藥局,臺南市,善化區,中山路370之1號,06-5817769
開業,藥事機構,弘松健保藥局,臺南市,善化區,中興路108號,06-5819146
開業,藥事機構,永松藥局,臺南市,善化區,三民路87號,06-5817923
開業,藥事機構,安仁堂大藥局,臺南市,善化區,中山路477號,06-5817156
開業,藥事機構,德美藥局,臺南市,善化區,嘉北里32之1號,06-5838720
開業,藥事機構,資生大藥局,臺南市,善化區,光文里中山路37號,06-5837659
開業,藥事機構,信昌藥師藥局,臺南市,善化區,中興路五十號,06-5817245
開業,藥事機構,神藥堂藥局,臺南市,大內區,石湖里291號之5,06-5761980
開業,藥事機構,三和藥局,臺南市,大內區,內江里二七0號,06-5762187
開業,藥事機構,江梁藥師藥局,臺南市,大內區,內江里285之1號,06-5761206
開業,藥事機構,瑞興藥局,臺南市,山上區,南洲里66號,06-5781151
開業,藥事機構,杏元藥局,臺南市,新市區,永福街56號,06-5994871
開業,藥事機構,安耕藥局,臺南市,新市區,中正路331號,06-5995345
開業,藥事機構,安麗兒藥局新市店,臺南市,新市區,新和里中正路260號,06-5012699
開業,藥事機構,慶豐綜合藥局,臺南市,新市區,新和里民生路五十七號,06-5014888
開業,藥事機構,新視藥局,臺南市,新市區,中正路313號,06-5990712
開業,藥事機構,保健藥局,臺南市,新市區,中興街13號,06-5993266
開業,藥事機構,重仁藥局,臺南市,新市區,中興街48號,06-5998586
開業,藥事機構,新和德健保藥局,臺南市,新市區,中正路319-1號,06-5997603
開業,藥事機構,華林藥局,臺南市,新市區,中正路143號,06-59899903
開業,藥事機構,一翔藥局,臺南市,安定區,港南里港口196號,06-5935208
開業,藥事機構,世揚藥局,臺南市,安定區,港南里143之2號,06-5939472
