city,district,name,address
台南市,中西區,中油-西門路一段站(直營),台南市中西區西門路一段524號
台南市,中西區,中油-民生路站(直營),台南市中西區民生路二段303號
台南市,中西區,中油-府前路站(直營),台南市中西區府前路二段256號
台南市,中西區,中油-安平古堡站(直營),台南市中西區民權路四段730號
台南市,中西區,中油-文賢路站(直營),台南市中西區文賢路229號
台南市,中西區,中油-中華西路南站(直營),台南市中西區中華西路二段2號
台南市,中西區,中油-德州民族(加盟),台南市中西區民族路三段138號
台南市,中西區,中油-千越文賢(加盟),台南市中西區文賢路415號
台南市,中西區,台塑-金華站,台南市中西區金華路三段169號
台南市,東區,中油-崇善路站(直營),台南市東區崇善路557號
台南市,東區,中油-大同路站(直營),台南市東區大同路二段380號
台南市,東區,中油-崇學路站(直營),台南市東區崇學路228號
台南市,東區,中油-中華路東站(直營),台南市東區中華東路三段171號
台南市,東區,中油-中華路西站(直營),台南市東區中華東路三段170號
台南市,東區,中油-生產路站(直營),台南市東區生產路1號
台南市,東區,中油-東門路站(直營),台南市東區東門路二段39號
台南市,東區,中油-永昇(加盟),台南市東區中華東路一段8號
台南市,東區,中油-台糖崇德(加盟),台南市東區崇德路790號
台南市,東區,中油-千越東門(加盟),台南市東區中華東路二段298號
台南市,東區,台塑-大同路站,台南市東區大同路一段243號
台南市,東區,台塑-裕農站,台南市東區裕農路880號
台南市,南區,中油-北海站(直營),台南市南區濱南路239號
台南市,南區,中油-安平工業區站(直營),台南市南區中華西路一段65號
台南市,南區,中油-國民路站(直營),台南市南區國民路246號
台南市,南區,中油-灣裡站(直營),台南市南區明興路1081號
台南市,南區,中油-喜樹站(週日歇業)(直營),台南市南區喜樹路63號
台南市,南區,中油-統一精工金華(加盟),台南市南區金華路一段1號
台南市,南區,中油-明興路(加盟),台南市南區喜東里明興路465號
台南市,南區,全國-海佃路站,台南市南區海佃路一段347號
台南市,南區,全國-南一站,台南市南區中華南路一段188號
台南市,南區,Smile-金華站,台南市南區金華路一段1號
台南市,北區,中油-成功路站(直營),台南市北區成功路16號
台南市,北區,中油-公園路站(直營),台南市北區公園路721號
台南市,北區,中油-前鋒站(直營),台南市北區前鋒路283號
台南市,北區,中油-千越中華北(加盟),台南市北區中華北路一段72號
台南市,北區,中油-千越開元(加盟),台南市北區元寶里開元路467號
台南市,北區,中油-統一中華西(加盟),台南市北區中華北路一段76號
台南市,北區,中油-統一小北二站(加盟),台南市北區西門路四段339號
台南市,北區,中油-統一精工西門(加盟),台南市北區成功路368號
台南市,北區,中油-千越西門(加盟),台南市北區西門路4段239號
台南市,北區,中油-統一精工小北(加盟),台南市北區西門路三段228號
台南市,北區,中油-中華石油公園南(加盟),台南市北區公園南路211號
台南市,北區,Smile-小北站,台南市北區西門路三段228號
台南市,北區,Smile-中華西站,台南市北區中華北路一段76號
台南市,北區,Smile-西門站,台南市北區成功路368號
台南市,北區,Smile-小北二站,台南市北區西門路四段339號
台南市,安平區,中油-光州站(直營),台南市安平區永華路二段1255號
台南市,安平區,中油-健康路站(直營),台南市安平區健康路三段238號
台南市,安平區,中油-育平路站(直營),台南市安平區育平路80號
台南市,安平區,中油-永華路東(直營),台南市安平區永華路二段216號
台南市,安平區,中油-慶平路站(直營),台南市安平區慶平路485號
台南市,安南區,中油-安和站(直營),台南市安南區安和路二段238號
台南市,安南區,中油-和順站(直營),台南市安南區安和路四段335號
台南市,安南區,中油-安中路站(直營),台南市安南區安中路四段446號
台南市,安南區,中油-安順站(直營),台南市安南區安中路一段650號
台南市,安南區,中油-民安海佃(加盟),台南市安南區海佃路二段202號
台南市,安南區,中油-大銘昌(加盟),台南市安南區安明路四段1253號
台南市,安南區,中油-統一精工海佃(加盟),台南市安南區海佃路一段339號
台南市,安南區,中油-千越海佃(加盟),台南市安南區海佃路2段5號
台南市,安南區,中油-公學(加盟),台南市安南區安吉路3段567號
台南市,安南區,中油-優力長溪(加盟),台南市安南區北安路三段727號
台南市,安南區,中油-優力安和(加盟),台南市安南區安和路四段160號
台南市,安南區,中油-優力大成(加盟),台南市安南區安明路三段990號
台南市,安南區,中油-統一精工北安一(加盟),台南市安南區北安路四段665號
台南市,安南區,中油-嘉和(加盟),台南市安南區海佃路四段205號
台南市,安南區,中油-轂豐(加盟),台南市安南區安吉路一段465號
台南市,安南區,中油-甲上(加盟),台南市安南區安吉路一段759號
台南市,安南區,中油-永樺(加盟),台南市安南區安明路三段999號
台南市,安南區,中油-加州(加盟),台南市安南區長和路一段95號
台南市,安南區,中油-北安(加盟),台南市安南區北安路二段363號
台南市,安南區,台塑-安吉路站,台南市安南區安吉路三段608號
台南市,安南區,台塑-安南站,台南市安南區怡安路二段512號
台南市,安南區,Smile-北安一站,台南市安南區北安路四段665號
台南市,安南區,Smile-海佃站,台南市安南區海佃路一段339號
台南市,永康區,中油-永康站(直營),台南市永康區蔦松里中正北路348號
台南市,永康區,中油-大灣站(直營),台南市永康區建國里復興路69號
台南市,永康區,中油-中油永交站(直營),台南市永康區中正北路319號
台南市,永康區,中油-統一精工永康三(加盟),台南市永康區鹽行里30鄰中正北路308號
台南市,永康區,中油-山隆永康(加盟),台南市永康區中華路995之1號
台南市,永康區,中油-統一鹽行(加盟),台南市永康區中正南路569-1號
台南市,永康區,中油-永大路(加盟),台南市永康區永大路二段641號
台南市,永康區,中油-台糖永安加油站(加盟),台南市永康區永安路350號
台南市,永康區,中油-元大(加盟),台南市永康區崑山里永大路一段69號
台南市,永康區,中油-台灣優力大灣(加盟),台南市永康區大灣路780號
台南市,永康區,中油-台灣優力崑山(加盟),台南市永康區復興路28號
台南市,永康區,中油-遠大(加盟),台南市永康區民族路7號
台南市,永康區,中油-永新(加盟),台南市永康區中山北路768號
台南市,永康區,中油-加泓(加盟),台南市永康區中正路353號
台南市,永康區,中油-統一精工永康二(加盟),台南市永康區中山北路498號
台南市,永康區,中油-旺位(加盟),台南市永康區中正南路153號
台南市,永康區,中油-統一精工永康(加盟),台南市永康區中正北路735號
台南市,永康區,中油-土庫(加盟),台南市永康區太子路700號
台南市,永康區,中油-永康六甲頂(加盟),台南市永康區中正南路132號
台南市,永康區,中油-永康正大(加盟),台南市永康區中正南路292號
台南市,永康區,台塑-永康交流道站,台南市永康區中正北路320號
台南市,永康區,Smile-永康站,台南市永康區中正北路735號
台南市,永康區,Smile-永康二站,台南市永康區中山北路498號
台南市,永康區,Smile-永康三站,台南市永康區鹽行里中正北路308號
台南市,歸仁區,中油-歸仁站(直營),台南市歸仁區中山路三段201號
台南市,歸仁區,中油-歸仁高鐵站(直營),台南市歸仁區中正南路二段11號
台南市,歸仁區,中油-山隆高仁(加盟),台南市歸仁區中正南路二段135號
台南市,歸仁區,中油-統一精工歸仁(加盟),台南市歸仁區中山路一段172號
台南市,歸仁區,中油-統佳(加盟),台南市歸仁區中正北路一段261號
台南市,歸仁區,中油-大佳(加盟),台南市歸仁區民族北街2號
台南市,歸仁區,中油-大旺(加盟),台南市歸仁區中山路三段596號
台南市,歸仁區,Smile-歸仁站,台南市歸仁區中山路一段172號
台南市,歸仁區,Smile-台南高鐵站,台南市歸仁區凱旋路三段261號
台南市,新化區,中油-新化站(直營),台南市新化區中山路575號
台南市,新化區,中油-三佳新化(加盟),台南市新化區那拔里牧場1之15號
台南市,新化區,中油-那拔林(加盟),台南市新化區那拔里牧場71號
台南市,新化區,中油-大新(加盟),台南市新化區中山路788號
台南市,新化區,中油-東新(加盟),台南市新化區中正路1083號
台南市,玉井區,中油-玉井站(直營),台南市玉井區中山路91號
台南市,楠西區,中油-楠西站(直營),台南市楠西區中正路359號
台南市,仁德區,中油-廣信站(直營),台南市仁德區中正路三段583號
台南市,仁德區,中油-統一仁德二站(加盟),台南市仁德區中正路二段596號
台南市,仁德區,中油-統一精工仁德成功(加盟),台南市仁德區中山路3號
台南市,仁德區,中油-全晟(加盟),台南市仁德區民安路一段273號
台南市,仁德區,中油-統好(加盟),台南市仁德區勝利路361號
台南市,仁德區,中油-台糖虎山(加盟),台南市仁德區仁愛1152號
台南市,仁德區,中油-瑞泰(加盟),台南市仁德區中正路三段312號
台南市,仁德區,中油-瑞廷(加盟),台南市仁德區中正路三段361號
台南市,仁德區,中油-大德(加盟),台南市仁德區三甲子57-10號
台南市,仁德區,中油-元升(加盟),台南市仁德區中正路一段103號
台南市,仁德區,中油-仁德太子(加盟),台南市仁德區太子路143號
台南市,仁德區,Smile-仁德成功站,台南市仁德區中山路3號
台南市,仁德區,Smile-仁德二站,台南市仁德區中正路二段596號
台南市,關廟區,中油-關廟站(直營),台南市關廟區中山路二段166號
台南市,關廟區,中油-亞柏關廟(加盟),台南市關廟區中山路二段235號
台南市,關廟區,中油-瑞泉(加盟),台南市關廟區關新路二段238號
台南市,官田區,中油-官田工業區站(直營),台南市官田區工業路23-1號
台南市,官田區,中油-隆田站(直營),台南市官田區中華路二段23號
台南市,麻豆區,中油-麻學站(直營),台南市麻豆區大山里大山腳67-25號
台南市,麻豆區,中油-中油麻交站(直營),台南市麻豆區麻口里麻豆口118號
台南市,麻豆區,中油-麻豆站(直營),台南市麻豆區中山路13號
台南市,麻豆區,中油-麻新(加盟),台南市麻豆區苓子林30號
台南市,麻豆區,中油-台糖文正(加盟),台南市麻豆區南勢里南勢86-8號
台南市,麻豆區,台塑-麻豆交流道站,台南市麻豆區小埤里苓子林1-2號
台南市,佳里區,中油-佳里站(直營),台南市佳里區中山路480號
台南市,佳里區,中油-統一精工佳里(加盟),台南市佳里區同安寮77之39號
台南市,佳里區,中油-統一精工佳里二(加盟),台南市佳里區新生路348號
台南市,佳里區,中油-國賓(加盟),台南市佳里區民安里同安寮1-9號
台南市,佳里區,中油-佳興(加盟),台南市佳里區佳里興570-50號
台南市,佳里區,Smile-佳里站,台南市佳里區民安里同安寮77-39號
台南市,西港區,中油-西港站(直營),台南市西港區西港里中山路52號
台南市,學甲區,中油-學甲中正路站(直營),台南市學甲區中正路645號
台南市,學甲區,中油-學甲站(直營),台南市學甲區華宗路311號
台南市,學甲區,中油-佳億(加盟),台南市學甲區平西里西平寮12號
台南市,學甲區,中油-夢公園(加盟),台南市學甲區中山路187號
台南市,新營區,中油-新營長榮路站(直營),台南市新營區長榮路二段186號
台南市,新營區,中油-統一精工新營二(加盟),台南市新營區埤寮里長榮路二段66號
台南市,新營區,中油-亞柏新營(加盟),台南市新營區復興路770號
台南市,新營區,中油-正仁(加盟),台南市新營區復興路984號
台南市,新營區,中油-大新營(加盟),台南市新營區復興路299號
台南市,新營區,中油-太子宮(加盟),台南市新營區復興路779號
台南市,新營區,全國-新營站,台南市新營市開元路231號
台南市,新營區,台塑-新營交流道站,台南市新營區復興路692號
台南市,新營區,Smile-新營二站,台南市新營區埤寮里長榮路二段66號
台南市,白河區,中油-永安站(直營),台南市白河區中山路1-433號
台南市,白河區,中油-白河中山(加盟),台南市白河區中山路1之62號
台南市,六甲區,中油-六甲站(直營),台南市六甲區中山路446號
台南市,下營區,中油-下營站(直營),台南市下營區中山路一段386號
台南市,下營區,中油-營農加油站(加盟),台南市下營區公園路412號
台南市,柳營區,中油-安福(加盟),台南市柳營區柳營路二段353號
台南市,鹽水區,中油-鹽水站(直營),台南市鹽水區橋南里月津路53號
台南市,鹽水區,台塑-鹽水站,台南市鹽水區橋南里仁愛路2號
台南市,善化區,中油-茄拔站(直營),台南市善化區嘉北里茄拔2-30號
台南市,善化區,中油-善化站(直營),台南市善化區中山路368號
台南市,善化區,中油-松建(加盟),台南市善化區成功路1-1號
台南市,善化區,中油-山隆善化(加盟),台南市善化區小新里小新營361號
台南市,善化區,中油-統一精工善化(加盟),台南市善化區中正路339號
台南市,善化區,中油-台糖曾文(加盟),台南市善化區六分里溪底寮67號
台南市,善化區,中油-五洲(加盟),台南市善化區胡厝里興農路706號
台南市,善化區,Smile-善化站,台南市善化區中正路339號
台南市,新市區,中油-中油南科站(直營),台南市新市區南科二路3號
台南市,新市區,中油-西拉雅站(直營),台南市新市區三舍239號
台南市,新市區,中油-統一精工新市(加盟),台南市新市區中正路320號
台南市,新市區,中油-新市中山(加盟),台南市新市區中山路227-3號
台南市,新市區,Smile-新市站,台南市新市區中正路320號
台北市,中正區,中油-汀州路站(直營),台北市中正區汀州路三段1號
台北市,中正區,中油-莒光路站(直營),台北市中正區莒光路2號
台北市,中正區,中油-林森北路站(直營),台北市中正區林森北路11號
台北市,大同區,中油-民權西路站(直營),台北市大同區民權西路194號
台北市,中山區,中油-新生北路站(直營),台北市中山區新生北路二段71號
台北市,中山區,中油-吉林路站(直營),台北市中山區吉林路31號
台北市,中山區,中油-中崙站(直營),台北市中山區八德路二段214號
台北市,中山區,中油-大直站(直營),台北市中山區明水路661號
台北市,中山區,中油-建國北路站(直營),台北市中山區建國北路三段91號之1
台北市,中山區,中油-長安(加盟),台北市中山區長安東路二段34號
台北市,中山區,中油-濱江(加盟),台北市中山區濱江街195號
台北市,松山區,中油-光復北路站(直營),台北市松山區光復北路13號
台北市,松山區,中油-復興北路站(直營),台北市松山區復興北路31號
台北市,松山區,中油-民生東路站(直營),台北市松山區三民路126號
台北市,松山區,台塑-松山機場站,台北市松山區敦化北路342-1號
台北市,大安區,中油-龍安站(直營),台北市大安區和平東路二段2號
台北市,大安區,中油-信義路站(直營),台北市大安區信義路四段374號
台北市,大安區,中油-富陽街站(直營),台北市大安區富陽街129號
台北市,大安區,中油-基隆路站(直營),台北市大安區基隆路二段162號
台北市,大安區,中油-新生南路站(直營),台北市大安區仁愛路三段1號
台北市,大安區,中油-金山南路站(直營),台北市大安區金山南路二段77號
台北市,大安區,中油-勝利(加盟),台北市大安區建國南路二段75之1號
台北市,萬華區,中油-桂林路站(直營),台北市萬華區桂林路53號
台北市,萬華區,中油-山隆萬大(加盟),台北市萬華區萬大路207號
台北市,萬華區,中油-山隆華中(加盟),台北市萬華區萬大路388號
台北市,信義區,中油-松山路站(直營),台北市信義區松山路480號
台北市,信義區,中油-忠孝東路站(直營),台北市信義區忠孝東路五段69號
台北市,士林區,中油-陽明山站(直營),台北市士林區格致路3號
台北市,士林區,中油-福林站(直營),台北市士林區中山北路五段465號
台北市,士林區,中油-社子站(直營),台北市士林區重慶北路四段198號
台北市,士林區,中油-文林路站(直營),台北市士林區文林路100號
台北市,士林區,全國-洲美站,台北市士林區延平北路六段505號
台北市,士林區,全國-台北交流道站,台北市士林區重慶北路四段141號
台北市,北投區,中油-北投中央北路站(直營),台北市北投區中央北路四段584號
台北市,北投區,中油-百齡四路加油加氣站(直營),台北市北投區承德路六段427號
台北市,北投區,中油-北投站(直營),台北市北投區承德路七段384號
台北市,北投區,中油-關渡大業(加盟),台北市北投區大業路157號
台北市,北投區,中油-石牌(加盟),台北市北投區承德路七段139號
台北市,北投區,中油-車容坊大業(加盟),台北市北投區大度路2號
台北市,北投區,台塑-承德站,台北市北投區承德路七段303號
台北市,內湖區,中油-內湖站(直營),台北市內湖區民權東路六段50號
台北市,內湖區,中油-西湖(直營),台北市內湖區內湖路一段59號
台北市,內湖區,中油-東湖站(直營),台北市內湖區康寧路三段225號
台北市,內湖區,中油-安康加油站(直營),台北市內湖區安康路282號
台北市,內湖區,中油-內湖麗山街站(直營),台北市內湖區內湖路一段362號
台北市,內湖區,中油-麗馳(加盟),台北市內湖區舊宗路二段133號
台北市,內湖區,中油-紫陽(加盟),台北市內湖區文德路206號
台北市,內湖區,中油-協記(加盟),台北市內湖區新明路305號
台北市,內湖區,中油-康寧(加盟),台北市內湖區康寧路三段30號
台北市,內湖區,中油-優力進寶(加盟),台北市內湖區港墘路250號
台北市,內湖區,中油-東易(加盟),台北市內湖區堤頂大道二段191號
台北市,內湖區,中油-統一內湖一(加盟),台北市內湖區新明路92號
台北市,內湖區,中油-優力內湖(加盟),台北市內湖區安康路296號
台北市,內湖區,全國-民權站,台北市內湖區民權東路六段20號
台北市,內湖區,全國-文德站,台北市內湖區民權東路六段10號
台北市,內湖區,台塑-佳阜站,台北市內湖區安康路160號
台北市,內湖區,台塑-堤頂交流道站,台北市內湖區舊宗路二段111號
台北市,南港區,中油-南港站(直營),台北市南港區南港路二段50號
台北市,南港區,中油-聯成(加盟),台北市南港區忠孝東路六段226號
台北市,南港區,全國-南港站,台北市南港區南港路三段49號
台北市,文山區,中油-木柵站(直營),台北市文山區木柵路三段2號
台北市,文山區,中油-萬隆站(直營),台北市文山區興隆路一段13號
台北市,文山區,中油-優力辛亥(加盟),台北市文山區辛亥路四段100號
台北市,文山區,中油-世新(加盟),台北市文山區景興路293號
台北市,文山區,全國-景美站,台北市文山區羅斯福路六段140號
新北市,金山區,中油-金山站(直營),新北市金山區中山路385號
新北市,金山區,中油-金農(加盟),新北市金山區中華路117巷1-23號
新北市,板橋區,中油-板橋民族路站(直營),新北市板橋區民族路90號
新北市,板橋區,中油-埔墘站(直營),新北市板橋區中山路二段320號
新北市,板橋區,中油-優力三民(加盟),新北市板橋區三民路一段129之2號
新北市,板橋區,中油-正隆(加盟),新北市板橋區三民路二段257號
新北市,板橋區,中油-北基新海(加盟),新北市板橋區新海路137號
新北市,板橋區,中油-光仁(加盟),新北市板橋區三民路一段106號
新北市,板橋區,台塑-華江橋站,新北市板橋區文化路二段612號
新北市,板橋區,台塑-板橋文化路站,新北市板橋區文化路二段262號
新北市,板橋區,台塑-板橋浮洲橋站,新北市板橋區篤行路一段33號
新北市,汐止區,中油-汐止站(直營),新北市汐止區大同路一段353號
新北市,汐止區,中油-保長坑站(直營),新北市汐止區大同路三段186-1號
新北市,汐止區,中油-汐平(加盟),新北市汐止區新台五路二段652號
新北市,汐止區,中油-平安(加盟),新北市汐止區大同路三段575號
新北市,汐止區,中油-明湖(加盟),新北市汐止區康寧街536號
新北市,汐止區,中油-四海(加盟),新北市汐止區大同路一段一號
新北市,汐止區,中油-伯爵(加盟),新北市汐止區汐萬路一段39號
新北市,汐止區,中油-優力汐科(加盟),新北市汐止區新台五路一段132號
新北市,汐止區,全國-東湖站,新北市汐止區康寧街5號
新北市,汐止區,全國-厚生站,新北市汐止區大同路三段279號
新北市,汐止區,台塑-汐止大同站,新北市汐止區大同路二段37號
新北市,汐止區,台塑-汐止好市多站,新北市汐止區大同路一段154號
新北市,汐止區,台塑-汐止新台五一站,新北市汐止區新台五路一段115號
新北市,深坑區,中油-昇泉(加盟),新北市深坑區萬順里北深路三段七號
新北市,深坑區,中油-東南(加盟),新北市深坑區北深路三段25巷14號號
新北市,深坑區,台塑-深坑站,新北市深坑區文山路三段110號
新北市,瑞芳區,中油-海濱站(直營),新北市瑞芳區海濱路157-2號
新北市,瑞芳區,中油-瑞芳站(直營),新北市瑞芳區中山路200號
新北市,瑞芳區,中油-林長(加盟),新北市瑞芳區瑞濱路32-6號
新北市,貢寮區,中油-澳底站(直營),新北市貢寮區真理里美艷山街6-2號
新北市,貢寮區,中油-濱海西(加盟),新北市貢寮區福連街35號
新北市,貢寮區,中油-濱海東(加盟),新北市貢寮區福連街36號
新北市,新店區,中油-寶橋路站(直營),新北市新店區寶橋路219號
新北市,新店區,中油-屈尺站(直營),新北市新店區新烏路二段202號
新北市,新店區,中油-新店北新路站(直營),新北市新店區北新路一段90號
新北市,新店區,中油-大豐站(直營),新北市新店區北新路二段205號
新北市,新店區,中油-新店中正路站(直營),新北市新店區中正路470號
新北市,新店區,中油-五城(加盟),新北市新店區安康路三段800號
新北市,新店區,中油-欣欣(加盟),新北市新店區永安里安和路三段35號
新北市,新店區,中油-碧安(加盟),新北市新店區安康路一段20號
新北市,新店區,中油-德安(加盟),新北市新店區安康路二段362號
新北市,新店區,中油-統一精工新店(加盟),新北市新店區環河路116號
新北市,新店區,中油-華城(加盟),新北市新店區安康路一段319號
新北市,新店區,中油-車子路(加盟),新北市新店區安康路二段269號
新北市,新店區,中油-安坑(加盟),新北市新店區安和路二段192號
新北市,新店區,中油-莊敬(加盟),新北市新店區中正路457號
新北市,新店區,中油-優力安康(加盟),新北市新店區安康路一段308號
新北市,新店區,中油-優力中央(加盟),新北市新店區環河路550號
新北市,新店區,全國-安和路站,新北市新店區安和路二段121號
新北市,新店區,台塑-碧潭站,新北市新店區安康路一段35號
新北市,新店區,台塑-新店中興路站,新北市新店區中興路三段131號
新北市,新店區,台塑-新店北新路站,新北市新店區北新路一段85號
新北市,新店區,Smile-新店站,新北市新店區環河路116號
新北市,永和區,中油-永和永利路站(直營),新北市永和區永利路69號
新北市,永和區,中油-優力永貞(加盟),新北市永和區中和路601號
新北市,永和區,中油-永和(加盟),新北市永和區中和路573號
新北市,中和區,中油-積穗站(直營),新北市中和區中山路二段550號
新北市,中和區,中油-中和站(直營),新北市中和區中和路260號
新北市,中和區,中油-龍門加油、加氣(加盟),新北市中和區中正路808號
新北市,中和區,中油-優力建一(加盟),新北市中和區中山路二段361號
新北市,中和區,中油-北基中和(加盟),新北市中和區中山路三段53號
新北市,中和區,中油-全宏二站(加盟),新北市中和區中和路212號
新北市,中和區,中油-優力海山(加盟),新北市中和區莒光路211號
新北市,中和區,中油-優力雙和(加盟),新北市中和區中山路二段22號
新北市,中和區,中油-板和(加盟),新北市中和區中正路1191號
新北市,中和區,中油-嘉尤(加盟),新北市中和區橋和路241號
新北市,中和區,中油-中和莒光路(加盟),新北市中和區莒光路260號
新北市,中和區,中油-嘉樂福(加盟),新北市中和區建八路1號
新北市,中和區,中油-華中橋(加盟),新北市中和區連城路96號
新北市,中和區,中油-統一精工大中和(加盟),新北市中和區員富里中正路1178號
新北市,中和區,中油-全宏(加盟),新北市中和區中正路828號
新北市,中和區,中油-四十張(加盟),新北市中和區連城路629號
新北市,中和區,全國-國揚站,新北市中和區中正路830號
新北市,中和區,台塑-中和橋和路站,新北市中和區橋和路81號
新北市,中和區,台塑-中和中山路站,新北市中和區中山路二段486號
新北市,中和區,台塑-中和建一路站,新北市中和區建一路18號
新北市,中和區,Smile-大中和站,新北市中和區員富里中正路1178號
新北市,土城區,中油-土城廣福路站(直營),新北市土城區四川路1號
新北市,土城區,中油-土城站(直營),新北市土城區中央路二段280號
新北市,土城區,中油-連城(加盟),新北市土城區金城路三段283號
新北市,土城區,中油-頂埔(加盟),新北市土城區中央路四段43號
新北市,土城區,中油-明仁(加盟),新北市土城區中華路一段30號
新北市,土城區,中油-北基冠軍(加盟),新北市土城區中央路一段7之1號
新北市,土城區,中油-亞柏土城(加盟),新北市土城區中華路一段164號
新北市,土城區,中油-聯華土城交流道(加盟),新北市土城區大安路101號
新北市,土城區,中油-北基土城交流道(加盟),新北市土城區中央路三段164號
新北市,土城區,全國-土城交流道站,新北市土城區中央路三段158號
新北市,土城區,全國-土城中華路站,新北市土城區中華路二段1號
新北市,土城區,全國-美城站,新北市土城區中華路二段2號
新北市,土城區,台塑-土城工業區站,新北市土城區中央路四段8號
新北市,土城區,台塑-土城中央路站,新北市土城區中央路三段83號
新北市,土城區,台塑-土城城林橋站,新北市土城區亞洲路9號
新北市,三峽區,中油-三峽站(直營),新北市三峽區介壽路一段193號
新北市,三峽區,中油-大埔站(直營),新北市三峽區中正路二段165號
新北市,三峽區,中油-宏福(加盟),新北市三峽區介壽路一段550號
新北市,三峽區,中油-溪南(加盟),新北市三峽區介壽路一段385號
新北市,三峽區,中油-清溪(加盟),新北市三峽區溪東路89號
新北市,三峽區,中油-民盛(加盟),新北市三峽區中正路二段362號
新北市,三峽區,中油-三鶯(加盟),新北市三峽區復興路316號
新北市,三峽區,全國-橫溪站,新北市三峽區介壽路三段114號
新北市,三峽區,台塑-三峽站,新北市三峽區中正路一段307號
新北市,樹林區,中油-樹林站(直營),新北市樹林區樹新路207號
新北市,樹林區,中油-三多站(直營),新北市樹林區中正路433號
新北市,樹林區,中油-山佳(加盟),新北市樹林區中山路三段30號
新北市,樹林區,中油-浮洲(加盟),新北市樹林區中正路105號
新北市,樹林區,中油-樹新(加盟),新北市樹林區中正路106號
新北市,樹林區,中油-柑園(加盟),新北市樹林區佳園路二段47號
新北市,樹林區,中油-永盛(加盟),新北市樹林區中華路1-1號
新北市,樹林區,中油-永錡保安(加盟),新北市樹林區大安路179號
新北市,樹林區,中油-和信(加盟),新北市樹林區中正路280-2號
新北市,樹林區,中油-彭厝(加盟),新北市樹林區八德街395號
新北市,樹林區,中油-昇陽(加盟),新北市樹林區中華路190號
新北市,樹林區,中油-金樹林(加盟),新北市樹林區中華路365號
新北市,樹林區,中油-永錡大安(加盟),新北市樹林區大安路576號
新北市,樹林區,中油-山隆樹林(加盟),新北市樹林區中華路66號
新北市,樹林區,中油-優力北大(加盟),新北市樹林區佳園路三段227號
新北市,樹林區,全國-大安站,新北市樹林區大安路2號
新北市,樹林區,台塑-俊英站,新北市樹林區俊英街280號
新北市,樹林區,台塑-中華站,新北市樹林區中華路2號
新北市,鶯歌區,中油-鶯桃路站(直營),新北市鶯歌區鶯桃路永新巷1號
新北市,鶯歌區,中油-鶯歌站(直營),新北市鶯歌區文化路152號
新北市,鶯歌區,中油-車容坊三鶯交流道(加盟),新北市鶯歌區三鶯路5號
新北市,鶯歌區,中油-峰沅(加盟),新北市鶯歌區中正一路225號
新北市,鶯歌區,中油-車容坊鳳鳴(加盟),新北市鶯歌區鶯桃路412號
新北市,鶯歌區,中油-裕進(加盟),新北市鶯歌區八德路1-2號
新北市,鶯歌區,中油-統一精工鶯歌(加盟),新北市鶯歌區中山路198號
新北市,鶯歌區,中油-山隆鶯歌(加盟),新北市鶯歌區永和二街28號
新北市,鶯歌區,Smile-鶯歌站,新北市鶯歌區中山路198號
新北市,鶯歌區,Smile-鶯歌二站,新北市鶯歌區文化路669號
新北市,三重區,中油-三重重新路站(直營),新北市三重區重新路五段495號
新北市,三重區,中油-菜寮站(直營),新北市三重區重新路三段157號
新北市,三重區,中油-二重站(直營),新北市三重區重新路五段652號
新北市,三重區,中油-重陽路(直營),新北市三重區忠孝路一段1號
新北市,三重區,中油-國園(加盟),新北市三重區重新路三段49號
新北市,三重區,中油-重陽橋(加盟),新北市三重區集賢路72號
新北市,三重區,中油-車容坊湯城(加盟),新北市三重區重新路五段628號
新北市,三重區,中油-聯華三重交流道(加盟),新北市三重區三和路四段81之1號
新北市,三重區,中油-中華源河(加盟),新北市三重區中正北路237號
新北市,三重區,中油-合盟中正(加盟),新北市三重區中正北路305號
新北市,三重區,中油-楓林(加盟),新北市三重區仁美街2號
新北市,三重區,中油-堤頂(加盟),新北市三重區自強路四段34號
新北市,三重區,台塑-三重環河路站,新北市三重區中興南街33之2號
新北市,三重區,台塑-三重自強路站,新北市三重區自強路四段96號
新北市,新莊區,中油-新莊大漢橋站(直營),新北市新莊區思源路41-1號
新北市,新莊區,中油-新莊站(直營),新北市新莊區中正路338號
新北市,新莊區,中油-五股工業區站(直營),新北市新莊區五工路99-3號
新北市,新莊區,中油-新樹(加盟),新北市新莊區中正路501號
新北市,新莊區,中油-興德(加盟),新北市新莊區頭前路13號
新北市,新莊區,中油-五工(加盟),新北市新莊區五工路60號
新北市,新莊區,中油-北基幸運(加盟),新北市新莊區新樹路140號之1
新北市,新莊區,中油-長鑫(加盟),新北市新莊區中山路一段146號
新北市,新莊區,中油-輔大(加盟),新北市新莊區中正路486-1號
新北市,新莊區,中油-聯新(加盟),新北市新莊區中山路三段118號
新北市,新莊區,中油-興化(加盟),新北市新莊區復興路三段117號
新北市,新莊區,中油-永錡中正(加盟),新北市新莊區中正路692之8號
新北市,新莊區,中油-大全(加盟),新北市新莊區五權三路2號
新北市,新莊區,全國-思源路站,新北市新莊區思源路68號
新北市,新莊區,全國-新莊站,新北市新莊區中華路二段83號
新北市,新莊區,台塑-新莊站,新北市新莊區思源路89號
新北市,新莊區,台塑-新莊化成路站,新北市新莊區中山路一段23號
新北市,泰山區,中油-泰山站(直營),新北市泰山區泰林路二段424號
新北市,泰山區,中油-泰新加油加氣站(直營),新北市泰山區中山路二段61號
新北市,泰山區,中油-永錡(加盟),新北市泰山區泰林路二段47號
新北市,泰山區,中油-車容坊五洲(加盟),新北市泰山區中山路三段8號
新北市,泰山區,中油-楓江(加盟),新北市泰山區楓江路88號
新北市,泰山區,全國-元泰站,新北市泰山區新五路一段135號
新北市,泰山區,全國-新五路站,新北市泰山區新五路一段89號
新北市,泰山區,全國-五股交流道站,新北市泰山區楓江路110號
新北市,林口區,中油-林口站(直營),新北市林口區林口里14鄰中山路1號
新北市,林口區,中油-統一林口二(加盟),新北市林口區粉寮路一段121號
新北市,林口區,中油-新林口(加盟),新北市林口區中山路27號
新北市,林口區,中油-車容坊文化二路(加盟),新北市林口區文化二路一段413號
新北市,林口區,中油-山隆林口(加盟),新北市林口區文化二路二段553號
新北市,林口區,台塑-林口忠孝站,新北市林口區南勢村忠孝路132號
新北市,林口區,台塑-林口中山站,新北市林口區湖南村文化三路二段300號
新北市,蘆洲區,中油-蘆洲三民路站(直營),新北市蘆洲區三民路550號
新北市,蘆洲區,中油-蘆洲站(直營),新北市蘆洲區三民路99號
新北市,蘆洲區,中油-蘆洲中山二路站(直營),新北市蘆洲區中山二路309號
新北市,蘆洲區,中油-北基蘆洲(加盟),新北市蘆洲區中山一路310號
新北市,蘆洲區,全國-蘆洲站,新北市蘆洲區中山一路417號
新北市,五股區,中油-五股站(直營),新北市五股區中興路四段21號
新北市,五股區,中油-昇易(加盟),新北市五股區新五路二段129號
新北市,五股區,中油-上群(加盟),新北市五股區新五路二段126號
新北市,五股區,中油-聯華五股(加盟),新北市五股區成泰路二段250號
新北市,五股區,中油-中華成泰(加盟),新北市五股區成泰路一段76號
新北市,五股區,中油-北基中興路(加盟),新北市五股區中興路二段1號
新北市,八里區,中油-八里中華路站(直營),新北市八里區中華路二段39號
新北市,八里區,中油-八里站(直營),新北市八里區中山路一段1號
新北市,八里區,中油-獅子頭(加盟),新北市八里區龍米路一段50號
新北市,八里區,中油-八仙(加盟),新北市八里區龍米路一段51號
新北市,八里區,中油-車容坊關渡橋(加盟),新北市八里區龍米路二段72-1號
新北市,八里區,台塑-八里台北港站,新北市八里區中華路二段341號
新北市,淡水區,中油-淡海新市鎮站(直營),新北市淡水區埤島里二鄰淡金路二段599號
新北市,淡水區,中油-東來(加盟),新北市淡水區淡金路一段69號
新北市,淡水區,中油-竹圍(加盟),新北市淡水區民權路86號
新北市,淡水區,中油-登輝(加盟),新北市淡水區淡金路三段446號
新北市,淡水區,全國-淡水站,新北市淡水區民權路41號
新北市,淡水區,全國-淡海站,新北市淡水區淡金路132號
新北市,三芝區,中油-北海(加盟),新北市三芝區北海路二段167號
新北市,三芝區,中油-南海(加盟),新北市三芝區北海路二段168號
新北市,石門區,中油-石門(加盟),新北市石門區中央路1-15號
台中市,東區,全國-樂業路站,台中市東區樂業路406號
台中市,東區,台塑-精武站,台中市東區精武東路42號1樓
台中市,東區,Smile-智成站,台中市東區大智路210號
台中市,西區,全國-五權路站,台中市西區五權路1-208號
台中市,北屯區,全國-仁美站,台中市北屯區崇德路三段1000號
台中市,北屯區,全國-中清站,台中市北屯區中清路110之25號
台中市,北屯區,全國-大坑站,台中市北屯區松竹路一段640號
台中市,北屯區,全國-昌平站,台中市北屯區崇德路二段36號
台中市,北屯區,全國-軍功站,台中市北屯區軍功路二段526號
台中市,北屯區,Smile-文心一站,台中市北屯區文心路四段891號
台中市,北屯區,Smile-北屯站,台中市北屯區北屯路211號
台中市,西屯區,全國-中清交流道站,台中市西屯區環中路一段1850號
台中市,西屯區,全國-西屯站,台中市西屯區西屯路三段77-3號
台中市,西屯區,全國-中港交流道站,台中市西屯區中港路二段98號
台中市,西屯區,全國-大雅交流道站,台中市西屯區中清路225之1號
台中市,西屯區,台塑-大鵬站,台中市西屯區河南路二段35號
台中市,西屯區,台塑-安和路站,台中市西屯區安和路49-5號
台中市,南屯區,全國-文心站,台中市南屯區文心南路212號
台中市,南屯區,台塑-春社站,台中市南屯區永春路35之25號
台中市,南屯區,Smile-南屯站,台中市南屯區五權西路三段350號
台中市,太平區,全國-太平站,台中市太平區中山路四段20號
台中市,太平區,台塑-宜欣站,台中市太平區樹孝路6號
台中市,大里區,全國-大里站,台中市大里區文心南路1120號
台中市,大里區,全國-樹王站,台中市大里區樹王路50之10之15號
台中市,大里區,Smile-大里站,台中市大里區中興路一段294號
台中市,大里區,Smile-樹王站,台中市大里區文心南路1151號
台中市,大里區,Smile-大里二站,台中市大里區中興路二段412號
台中市,大里區,Smile-大里三站,台中市大里區國中路285號
台中市,烏日區,全國-烏日站,台中市烏日區中山路三段1311號
台中市,烏日區,台塑-九張犁站,台中市烏日區中山路一段187號
台中市,烏日區,Smile-烏日站,台中市烏日區新興路596號
台中市,豐原區,全國-豐勢站,台中市豐原區豐勢路一段526號
台中市,豐原區,全國-國道四號站,台中市豐原區朴子里國豐路三段505號
台中市,豐原區,全國-三豐路站,台中市豐原區東湳里三豐路1012號
台中市,豐原區,台塑-豐原大道站,台中市豐原市西勢路512-1號
台中市,豐原區,Smile-豐原二站,台中市豐原區豐原大道一段370號
台中市,石岡區,Smile-石岡站,台中市石岡區明德路195號
台中市,潭子區,Smile-潭子站,台中市潭子區潭興路三段1號
台中市,大雅區,全國-上楓站,台中市大雅區民生路四段239號
台中市,神岡區,全國-豐原交流道站,台中市神岡區中山路255號
台中市,神岡區,全國-神岡站,台中市神岡區中山路1221號
台中市,大肚區,全國-大肚站,台中市大肚區沙田路二段249號
台中市,沙鹿區,全國-中港站,台中市沙鹿區中棲路1號
台中市,龍井區,全國-龍井站,台中市龍井區台中港路150號
台中市,梧棲區,台塑-關連站,台中市梧棲區臨港路二段70號
台中市,大甲區,全國-大甲橋站,台中市大甲區中山路一段61號
高雄市,新興區,中油-林森二路站(直營),高雄市新興區新田路82號
高雄市,新興區,中油-中正二路站(直營),高雄市新興區中正二路166號
高雄市,新興區,中油-中正三路站(直營),高雄市新興區中正三路9號
高雄市,前金區,中油-運河南路站(直營),高雄市前金區河南二路87號
高雄市,前金區,中油-中華三路站(直營),高雄市前金區中華三路136號
高雄市,前金區,中油-中山二路站(直營),高雄市前金區中山二路569號
高雄市,前金區,中油-中正四路站(直營),高雄市前金區中正四路251號
高雄市,前金區,中油-成功一路站(直營),高雄市前金區成功一路384號
高雄市,苓雅區,中油-三多三路站(直營),高雄市苓雅區三多三路264號
高雄市,苓雅區,中油-建國一路站(直營),高雄市苓雅區建國一路142號
高雄市,苓雅區,中油-青年路站(直營),高雄市苓雅區民權一路105號
高雄市,苓雅區,中油-四維三路站(愛心站)(直營),高雄市苓雅區永定街93號
高雄市,苓雅區,中油-高鳳站(直營),高雄市苓雅區建國一路3號
高雄市,苓雅區,中油-三多二路站(直營),高雄市苓雅區三多二路80號
高雄市,苓雅區,中油-光華(加盟),高雄市苓雅區三多二路330號
高雄市,苓雅區,中油-國慶(加盟),高雄市苓雅區中正一路332號
高雄市,苓雅區,中油-大立(加盟),高雄市苓雅區凱旋三路657號
高雄市,苓雅區,中油-允利(加盟),高雄市苓雅區輜汽路69號
高雄市,苓雅區,中油-大眾(加盟),高雄市苓雅區中山二路497號
高雄市,苓雅區,全國-三多站,高雄市苓雅區三多二路197號
高雄市,鹽埕區,中油-大義街站(直營),高雄市鹽埕區大義街56-1號
高雄市,鹽埕區,中油-鹽埕(加盟),高雄市鹽埕區建國四路311號
高雄市,鼓山區,中油-鼓山三路站(直營),高雄市鼓山區鼓山三路5-1號
高雄市,鼓山區,中油-南鼓山站(直營),高雄市鼓山區捷興二街46號
高雄市,鼓山區,中油-新厝博愛(加盟),高雄市鼓山區博愛一路536號
高雄市,旗津區,中油-旗津站(直營),高雄市旗津區中洲二路259號
高雄市,前鎮區,中油-高雄加工區站(直營),高雄市前鎮區中四路3號
高雄市,前鎮區,中油-瑞豐站(直營),高雄市前鎮區瑞福路2號
高雄市,前鎮區,中油-36號碼頭站(直營),高雄市前鎮區大華六街1號
高雄市,前鎮區,中油-漁港路站(直營),高雄市前鎮區漁港路2號
高雄市,前鎮區,中油-前鎮站(直營),高雄市前鎮區擴建路1-1號
高雄市,前鎮區,中油-民權路站(直營),高雄市前鎮區一心一路291號
高雄市,前鎮區,中油-南一路站(直營),高雄市前鎮區漁港南一路19-1號
高雄市,前鎮區,中油-台糖成功(加盟),高雄市前鎮區成功二路2-2號
高雄市,前鎮區,中油-台糖中華(加盟),高雄市前鎮區中華五路825號
高雄市,前鎮區,中油-高都(加盟),高雄市前鎮區金福路80號
高雄市,前鎮區,中油-永豐(加盟),高雄市前鎮區永豐路229號
高雄市,前鎮區,中油-鎮海(加盟),高雄市前鎮區鎮海路123號
高雄市,前鎮區,中油-雄菱(加盟),高雄市前鎮區新生路210號
高雄市,前鎮區,台塑-大業站,高雄市前鎮區凱旋4路560號
高雄市,三民區,中油-鼎山路站(直營),高雄市三民區鼎山街373號
高雄市,三民區,中油-山東街站(直營),高雄市三民區山東街70號
高雄市,三民區,中油-覺民路站(直營),高雄市三民區覺民路362號
高雄市,三民區,中油-建工路站(直營),高雄市三民區建工路566號
高雄市,三民區,中油-建國二路站(直營),高雄市三民區建國二路66號
高雄市,三民區,中油-民族(加盟),高雄市三民區民族一路418號
高雄市,三民區,中油-博愛(加盟),高雄市三民區博愛一路335號
高雄市,三民區,中油-天祥(加盟),高雄市三民區天祥一路99號
高雄市,三民區,中油-三民(加盟),高雄市三民區九如一路878號
高雄市,三民區,中油-澄清湖(加盟),高雄市三民區九如一路123號
高雄市,三民區,中油-自由(加盟),高雄市三民區自由一路231號
高雄市,三民區,中油-三越(加盟),高雄市三民區九如一路82號
高雄市,三民區,中油-大昌路(加盟),高雄市三民區大昌二路299號
高雄市,三民區,中油-金獅(加盟),高雄市三民區鼎力路36號
高雄市,三民區,中油-統一精工自立(加盟),高雄市三民區自立一路333號
高雄市,三民區,中油-新厝十全(加盟),高雄市三民區十全一路11號
高雄市,三民區,全國-大順站,高雄市三民區大順二路856號
高雄市,三民區,全國-九如站,高雄市三民區九如一路469號
高雄市,三民區,全國-北高站,高雄市三民區熱河二街338號
高雄市,三民區,台塑-華盟站,高雄市三民區中華二路372號
高雄市,三民區,台塑-大自由站,高雄市三民區自由一路276號
高雄市,三民區,Smile-自立站,高雄市三民區自立一路333號
高雄市,楠梓區,中油-後勁站(直營),高雄市楠梓區後昌路200號
高雄市,楠梓區,中油-楠梓站(直營),高雄市楠梓區高楠公路1376號
高雄市,楠梓區,中油-楠梓加工區站(直營),高雄市楠梓區經五路125號
高雄市,楠梓區,中油-右昌軍校路站(直營),高雄市楠梓區軍校路737號
高雄市,楠梓區,中油-慶昌(加盟),高雄市楠梓區後昌路1196號
高雄市,楠梓區,中油-德民(加盟),高雄市楠梓區德民路899號
高雄市,楠梓區,中油-台糖加昌(加盟),高雄市楠梓區加昌路637號
高雄市,楠梓區,中油-台糖民族二(加盟),高雄市楠梓區高楠公路945號
高雄市,楠梓區,中油-統一精工楠梓(加盟),高雄市楠梓區德中路168號
高雄市,楠梓區,中油-楠都(加盟),高雄市楠梓區楠陽路115號
高雄市,楠梓區,台塑-楠梓交流道站,高雄市楠梓區鳳楠路45號
高雄市,楠梓區,Smile-楠梓站,高雄市楠梓區德中路168號
高雄市,小港區,中油-臨海工業區站(直營),高雄市小港區沿海二路2號
高雄市,小港區,中油-大林站(直營),高雄市小港區鳳華路1號
高雄市,小港區,中油-小港站(直營),高雄市小港區大業北路45號
高雄市,小港區,中油-桂宏(加盟),高雄市小港區小港路75號
高雄市,小港區,中油-二苓(加盟),高雄市小港區大業北路218號
高雄市,小港區,中油-桂林(加盟),高雄市小港區孔鳳路579號
高雄市,小港區,中油-台糖博學(加盟),高雄市小港區博學路481號
高雄市,小港區,中油-山隆高雄(加盟),高雄市小港區沿海三路26-3號
高雄市,小港區,中油-統一精工小港(加盟),高雄市小港區高鳳路102號
高雄市,小港區,中油-優力小港(加盟),高雄市小港區沿海一路477號
高雄市,小港區,中油-新厝高鳳(加盟),高雄市小港區高鳳路272號
高雄市,小港區,全國-小港機場站,高雄市小港區大業北路29號
高雄市,小港區,Smile-小港站,高雄市小港區高鳳路102號
高雄市,左營區,中油-左營站(直營),高雄市左營區中華一路2-11號
高雄市,左營區,中油-統一精工左營(加盟),高雄市左營區民族一路936號
高雄市,左營區,中油-上豐(加盟),高雄市左營區自由三路157號
高雄市,左營區,中油-新厝左營大路(加盟),高雄市左營區左營大路920號
高雄市,左營區,中油-高楠(加盟),高雄市左營區民族一路697號
高雄市,左營區,中油-宏達(加盟),高雄市左營區大中一路443號
高雄市,左營區,中油-源豐(加盟),高雄市左營區博愛二路616號
高雄市,左營區,中油-裕誠(加盟),高雄市左營區博愛二路402號
高雄市,左營區,中油-左新(加盟),高雄市左營區政德路171號
高雄市,左營區,Smile-左營站,高雄市左營區民族一路936號
高雄市,仁武區,中油-仁武站(直營),高雄市仁武區鳳仁路282號
高雄市,仁武區,中油-山隆仁武(加盟),高雄市仁武區仁林路153號
高雄市,仁武區,中油-亞柏八卦寮(加盟),高雄市仁武區八德西路433號
高雄市,仁武區,中油-亞柏仁武(加盟),高雄市仁武區澄觀路一段1111號
高雄市,仁武區,中油-優力民族(加盟),高雄市仁武區高楠公路28號
高雄市,仁武區,中油-今順(加盟),高雄市仁武區仁雄路500號
高雄市,仁武區,中油-台糖仁新(加盟),高雄市仁武區水管路三段276號
高雄市,仁武區,中油-台糖高鐵(加盟),高雄市仁武區高楠公路55號
高雄市,仁武區,中油-台糖仁林(加盟),高雄市仁武區澄觀路二段2號
高雄市,仁武區,中油-台糖民族三(加盟),高雄市仁武區高楠公路62號
高雄市,仁武區,中油-鳳仁(加盟),高雄市仁武區鳳仁路177號
高雄市,仁武區,全國-仁武交流道站,高雄市仁武區鳳仁路166號
高雄市,仁武區,台塑-仁武站,高雄市仁武區鳳仁路304-3號
高雄市,大社區,中油-台糖橫山(加盟),高雄市大社區和平路一段2號
高雄市,大社區,中油-台糖大社(加盟),高雄市大社區中正路600號
高雄市,大社區,中油-靖海(加盟),高雄市大社區中山路665-20號
高雄市,大社區,中油-雙泰(加盟),高雄市大社區旗楠路8號
高雄市,岡山區,中油-岡山站(直營),高雄市岡山區岡山南路45號
高雄市,岡山區,中油-友情站(直營),高雄市岡山區介壽東路83號
高雄市,岡山區,中油-台糖岡北(加盟),高雄市岡山區岡山北路158號
高雄市,岡山區,中油-山隆軍校(加盟),高雄市岡山區石潭路100號
高雄市,岡山區,中油-統一精工佳興(加盟),高雄市岡山區成功路462號
高雄市,岡山區,中油-岡山北路(加盟),高雄市岡山區岡山路608號
高雄市,岡山區,中油-柳橋(加盟),高雄市岡山區通校路167號
高雄市,岡山區,中油-筧橋(加盟),高雄市岡山區介壽西路427-1號
高雄市,岡山區,中油-北嶺(加盟),高雄市岡山區岡山北路246號
高雄市,岡山區,中油-前鋒(加盟),高雄市岡山區前峰路238號
高雄市,岡山區,中油-統一精工祥永(加盟),高雄市岡山區介壽東路10號
高雄市,岡山區,中油-元鐘(加盟),高雄市岡山區為隨西路16號
高雄市,岡山區,中油-北岡山(加盟),高雄市岡山區岡山北路271號
高雄市,岡山區,台塑-台上站,高雄市岡山區成功路269號
高雄市,岡山區,台塑-程香站,高雄市岡山區岡燕路500號
高雄市,岡山區,台塑-岡山交流道站,高雄市岡山區介壽東路3號
高雄市,岡山區,Smile-岡山站,高雄市岡山區介壽東路10號
高雄市,岡山區,Smile-佳興站,高雄市岡山區成功路462號
高雄市,路竹區,中油-優力路科(加盟),高雄市路竹區中山南路118號
高雄市,路竹區,中油-新達(加盟),高雄市路竹區大公路439號
高雄市,路竹區,中油-統一精工路竹(加盟),高雄市路竹區環球路305號
高雄市,路竹區,中油-再生(加盟),高雄市路竹區復興路213號
高雄市,路竹區,台塑-明田站,高雄市路竹區中山路1016號
高雄市,路竹區,Smile-路竹站,高雄市路竹區環球路305號
高雄市,路竹區,Smile-路竹二站,高雄市路竹區環球路200號
高雄市,阿蓮區,中油-阿蓮站(直營),高雄市阿蓮區中山路351號
高雄市,阿蓮區,中油-和蓮(加盟),高雄市阿蓮區中正路960號
高雄市,阿蓮區,中油-聯合太子阿蓮(加盟),高雄市阿蓮區和平路256號
高雄市,阿蓮區,中油-大崗山(加盟),高雄市阿蓮區峰南66-12號
高雄市,阿蓮區,台塑-阿蓮站,高雄市阿蓮區中正路91號
高雄市,燕巢區,中油-優力燕巢(加盟),高雄市燕巢區安招路730號
高雄市,燕巢區,中油-統一精工旗楠(加盟),高雄市燕巢區鳳東路86號
高雄市,燕巢區,中油-山隆岡山(加盟),高雄市燕巢區安招路683號
高雄市,燕巢區,中油-統一精工燕巢(加盟),高雄市燕巢區安北路25號
高雄市,燕巢區,中油-建元(加盟),高雄市燕巢區安招路456之1號
高雄市,燕巢區,中油-鳳東路(加盟),高雄市燕巢區鳳東路77號
高雄市,燕巢區,中油-永全(加盟),高雄市燕巢區安招路1044號
高雄市,燕巢區,Smile-燕巢站,高雄市燕巢區安北路25號
高雄市,燕巢區,Smile-旗楠站,高雄市燕巢區鳳東路86號
高雄市,橋頭區,中油-台糖白埔(加盟),高雄市橋頭區芋寮路南段412號
高雄市,梓官區,中油-蚵仔寮站(直營),高雄市梓官區通港路通港巷1號
高雄市,梓官區,中油-梓官站(直營),高雄市梓官區和平路317號
高雄市,梓官區,中油-千越梓官(加盟),高雄市梓官區大舍南路238號
高雄市,梓官區,中油-向陽(加盟),高雄市梓官區大舍南路92號
高雄市,梓官區,台塑-大舍甲站,高雄市梓官區和平路2號
高雄市,彌陀區,中油-南寮站(直營),高雄市彌陀區漁港路73號
高雄市,彌陀區,中油-彌陀(加盟),高雄市彌陀區鹽埕大路138號
高雄市,彌陀區,中油-山隆永發(加盟),高雄市彌陀區鹽埕大路160號
高雄市,永安區,中油-樺興(加盟),高雄市永安區維新路18-13號
高雄市,永安區,中油-福記(加盟),高雄市永安區保安路248號
高雄市,湖內區,中油-太爺站(直營),高雄市湖內區中山路二段61號
高雄市,湖內區,中油-大湖站(直營),高雄市湖內區中山路一段72號
高雄市,湖內區,中油-千越路竹(加盟),高雄市湖內區中山路一段152號
高雄市,湖內區,中油-優力湖內(加盟),高雄市湖內區中山路二段3號
高雄市,湖內區,中油-台糖大湖(加盟),高雄市湖內區中山路一段200號
高雄市,湖內區,中油-興達港(加盟),高雄市湖內區東方路678號
高雄市,鳳山區,中油-五甲站(直營),高雄市鳳山區五甲一路232號
高雄市,鳳山區,中油-鳳松站(直營),高雄市鳳山區武松里鳳松路178-5號
高雄市,鳳山區,中油-統一精工鳳山(加盟),高雄市鳳山區鳳屏一路112號
高雄市,鳳山區,中油-台糖建軍(加盟),高雄市鳳山區鳳頂路602號
高雄市,鳳山區,中油-千越武慶(加盟),高雄市鳳山區武慶二路306號
高雄市,鳳山區,中油-上源(加盟),高雄市鳳山區鳳林路91號
高雄市,鳳山區,中油-甲洲(加盟),高雄市鳳山區五甲二路73號
高雄市,鳳山區,中油-台糖國泰(加盟),高雄市鳳山區國泰路一段281號
高雄市,鳳山區,中油-源興加油加氣站(加盟),高雄市鳳山區油管路99號
高雄市,鳳山區,全國-鳳山站,高雄市鳳山區中山西路218號
高雄市,鳳山區,台塑-老爺站,高雄市鳳山區五甲一路667號
高雄市,大寮區,中油-大寮站(直營),高雄市大寮區鳳林三路616號
高雄市,大寮區,中油-大益(加盟),高雄市大寮區鳳林一路502號
高雄市,大寮區,中油-泓成(加盟),高雄市大寮區鳳林二路621號
高雄市,大寮區,中油-江山(加盟),高雄市大寮區鳳屏二路46號
高雄市,大寮區,中油-祥發(加盟),高雄市大寮區光華路430號
高雄市,大寮區,中油-昭明(加盟),高雄市大寮區鳳林路四段400號
高雄市,大寮區,中油-大來(加盟),高雄市大寮區大漢路330號
高雄市,大寮區,中油-台糖大發(加盟),高雄市大寮區大寮路1303號
高雄市,大寮區,中油-大倫(加盟),高雄市大寮區光明路三段1080號
高雄市,大寮區,中油-統一精工鳳山二(加盟),高雄市大寮區鳳屏二路3號
高雄市,大寮區,中油-優力大進發(加盟),高雄市大寮區鳳林二路802號
高雄市,大寮區,中油-山隆大發(加盟),高雄市大寮區大寮路201號
高雄市,大寮區,全國-鳳榮站,高雄市大寮區大漢路225號
高雄市,大寮區,全國-鳳屏站,高雄市大寮區鳳屏1路810號
高雄市,大寮區,全國-大寮站,高雄市大寮區鳳林四路398號
高雄市,大寮區,Smile-鳳山站,高雄市大寮區鳳屏一路112號
高雄市,林園區,中油-林園沿海路站(直營),高雄市林園區沿海路四段1號
高雄市,林園區,中油-林興站(直營),高雄市林園區沿海路一段149號
高雄市,林園區,中油-林園站(直營),高雄市林園區林園北路350號
高雄市,林園區,中油-港埔(加盟),高雄市林園區中門路1-29號
高雄市,林園區,中油-永晉(加盟),高雄市林園區中芸三路300號
高雄市,林園區,台塑-林園站,高雄市林園區鳳林路三段650號
高雄市,鳥松區,中油-統一精工鳥松一(加盟),高雄市鳥松區神農路267號
高雄市,鳥松區,中油-千越仁美(加盟),高雄市鳥松區神農路370號
高雄市,鳥松區,中油-統一精工鳥松二(加盟),高雄市鳥松區中正路100-3號
高雄市,鳥松區,中油-水美(加盟),高雄市鳥松區北平路49號
高雄市,鳥松區,全國-鳥松站,高雄市鳥松區美山路121號
高雄市,鳥松區,台塑-鳥松站,高雄市鳥松區中正路44-77號
高雄市,鳥松區,Smile-鳥松二站,高雄市鳥松區中正路100-3號
高雄市,鳥松區,Smile-鳥松一站,高雄市鳥松區神農路267號
高雄市,大樹區,中油-大樹站(直營),高雄市大樹區中興北路184號
高雄市,大樹區,中油-小坪頂(加盟),高雄市大樹區小坪路93-8號
高雄市,旗山區,中油-旗山站(直營),高雄市旗山區復新街17號
高雄市,旗山區,中油-美林(加盟),高雄市旗山區延平二路114號
高雄市,旗山區,中油-振裕(加盟),高雄市旗山區延平一路115號
高雄市,旗山區,中油-新光(加盟),高雄市旗山區旗南三路120-8號
高雄市,旗山區,中油-嶺東(加盟),高雄市旗山區旗南三路204之1號
高雄市,旗山區,中油-宏洋(加盟),高雄市旗山區旗南二路87-6號
高雄市,旗山區,中油-洋洋(加盟),高雄市旗山區延平二路159號
高雄市,旗山區,中油-台糖公正(加盟),高雄市旗山區旗甲路二段10號
高雄市,美濃區,中油-美濃站(直營),高雄市美濃區成功路133號
高雄市,美濃區,中油-清豐(加盟),高雄市美濃區中正路二段655號
高雄市,美濃區,中油-美德(加盟),高雄市美濃區中興路一段401號
高雄市,六龜區,中油-六龜站(直營),高雄市六龜區光復路308號
高雄市,六龜區,中油-保來(加盟),高雄市六龜區寶建路4號
高雄市,六龜區,中油-三杰(加盟),高雄市六龜區光復路416號
高雄市,內門區,中油-內門站(直營),高雄市內門區南屏路125號
高雄市,杉林區,中油-杉林站(直營),高雄市杉林區清水路304號
高雄市,甲仙區,中油-國安加油站(加盟),高雄市甲仙區中園路200號
高雄市,桃源區,中油-梅蘭(加盟),高雄市桃源區南橫公路5段199號
高雄市,那瑪夏區,中油-伊比(加盟),高雄市那瑪夏區大光巷188號
高雄市,茄萣區,中油-茄萣站(直營),高雄市茄萣區白砂路6號
高雄市,茄萣區,中油-茄萣仁愛(加盟),高雄市茄萣區仁愛路一段2號
